[
    {
        "name_en": "Belledonne",
        "continent": "EU",
        "ISO": "AA",
        "ISO3": "AAA",
        "capital": "Prabert"
    },
    {
        "name_ru": "Бангладеш",
        "name_mn": "Бангладеш",
        "name_fr": "Bangladesh",
        "name_sv": "Bangladesh",
        "name_sw": "Bangladeshi",
        "name_es": "Bangladés",
        "name_ar": "بنغلاديش",
        "name_pl": "Bangladesz",
        "name_de": "Bangladesch",
        "ISO3": "BGD",
        "ISO": "BD",
        "name_tr": "Bangladeş",
        "capital": "Dhaka",
        "name_fi": "Bangladesh",
        "name_it": "Bangladesh",
        "name_en": "Bangladesh",
        "name_pt": "Bangladesh",
        "continent": "AS",
        "alternative_spellings": "বাংলাদেশ"
    },
    {
        "name_ru": "Бельгия",
        "name_mn": "Белги",
        "name_fr": "Belgique",
        "name_sv": "Belgien",
        "name_sw": "Ubelgiji",
        "name_es": "Bélgica",
        "name_ar": "بلجيكا",
        "name_pl": "Belgia",
        "name_de": "Belgien",
        "ISO3": "BEL",
        "ISO": "BE",
        "name_tr": "Belçika",
        "capital": "Brussels",
        "name_fi": "Belgia",
        "name_it": "Belgio",
        "name_en": "Belgium",
        "name_pt": "Bélgica",
        "continent": "EU",
        "alternative_spellings": "België Belgie"
    },
    {
        "name_ru": "Буркина-Фасо",
        "name_mn": "Буркина фасо",
        "name_fr": "Burkina Faso",
        "name_sv": "Burkina Faso",
        "name_sw": "Bukinafaso",
        "name_es": "Burkina Faso",
        "name_ar": "بوركينا فاسو",
        "name_pl": "Burkina Faso",
        "name_de": "Burkina Faso",
        "ISO3": "BFA",
        "ISO": "BF",
        "name_tr": "Burkina Faso",
        "capital": "Ouagadougou",
        "name_fi": "Burkina Faso",
        "name_it": "Burkina Faso",
        "name_en": "Burkina Faso",
        "continent": "AF",
        "name_pt": "Burquina Faso"
    },
    {
        "name_ru": "Болгария",
        "name_mn": "Болгар",
        "name_fr": "Bulgarie",
        "name_sv": "Bulgarien",
        "name_sw": "Bulgaria",
        "name_es": "Bulgaria",
        "name_ar": "بلغاريا",
        "name_pl": "Bułgaria",
        "name_de": "Bulgarien",
        "ISO3": "BGR",
        "ISO": "BG",
        "name_tr": "Bulgaristan",
        "capital": "Sofia",
        "name_fi": "Bulgaria",
        "name_it": "Bulgaria",
        "name_en": "Bulgaria",
        "continent": "EU",
        "name_pt": "Bulgária"
    },
    {
        "name_ru": "Венесуэла",
        "name_mn": "Венесуэл",
        "name_fr": "Venezuela",
        "name_sv": "Venezuela",
        "name_sw": "Venezuela",
        "name_es": "Venezuela",
        "name_ar": "فنزويلا",
        "name_pl": "Wenezuela",
        "name_de": "Venezuela",
        "ISO3": "VEN",
        "ISO": "VE",
        "name_tr": "Venezuela",
        "capital": "Caracas",
        "name_fi": "Venezuela",
        "name_it": "Venezuela",
        "name_en": "Venezuela",
        "continent": "SA",
        "name_pt": "Venezuela"
    },
    {
        "name_ru": "Босния и Герцеговина",
        "name_mn": "Босни Герцеговин",
        "name_fr": "Bosnie-Herzégovine",
        "name_sv": "Bosnien och Hercegovina",
        "name_sw": "Bosnia na Hezegovina",
        "name_es": "Bosnia-Herzegovina",
        "name_ar": "البوسنة والهرسك",
        "name_pl": "Bośnia i Hercegowina",
        "name_de": "Bosnien und Herzegowina",
        "ISO3": "BIH",
        "ISO": "BA",
        "name_tr": "Bosna-Hersek",
        "capital": "Sarajevo",
        "name_fi": "Bosnia ja Hertsegovina",
        "name_it": "Bosnia ed Erzegovina",
        "name_en": "Bosnia & Herzegovina",
        "name_pt": "Bósnia e Herzegovina",
        "continent": "EU",
        "alternates": [
            "Bosnia"
        ]
    },
    {
        "name_ru": "Барбадос",
        "name_mn": "Барбадос",
        "name_fr": "Barbade",
        "name_sv": "Barbados",
        "name_sw": "Babadosi",
        "name_es": "Barbados",
        "name_ar": "بربادوس",
        "name_pl": "Barbados",
        "name_de": "Barbados",
        "ISO3": "BRB",
        "ISO": "BB",
        "name_tr": "Barbados",
        "capital": "Bridgetown",
        "name_fi": "Barbados",
        "name_it": "Barbados",
        "name_en": "Barbados",
        "continent": "NA",
        "name_pt": "Barbados"
    },
    {
        "name_ru": "Уоллис и Футуна",
        "name_mn": "Уоллис ба Футуна",
        "name_fr": "Wallis-et-Futuna",
        "name_sv": "Wallis- och Futunaöarna",
        "name_sw": "Walis na Futuna",
        "name_es": "Wallis y Futuna",
        "name_ar": "جزر والس وفوتونا",
        "name_pl": "Wallis i Futuna",
        "name_de": "Wallis und Futuna",
        "ISO3": "WLF",
        "ISO": "WF",
        "name_tr": "Wallis ve Futuna",
        "capital": "Mata Utu",
        "name_fi": "Wallis ja Futuna",
        "name_it": "Wallis e Futuna",
        "name_en": "Wallis & Futuna",
        "name_pt": "Wallis e Futuna",
        "continent": "OC",
        "alternates": [
            "Wallis and Futuna"
        ]
    },
    {
        "name_ru": "Сен-Бартелеми",
        "name_mn": "Сент Бартельми",
        "name_fr": "Saint-Barthélemy",
        "name_sv": "S:t Barthélemy",
        "name_sw": "Santabathelemi",
        "name_es": "San Bartolomé",
        "name_ar": "سان بارتليمي",
        "name_pl": "Saint-Barthélemy",
        "name_de": "St. Barthélemy",
        "ISO3": "BLM",
        "ISO": "BL",
        "name_tr": "Saint Barthelemy",
        "capital": "Gustavia",
        "name_fi": "Saint-Barthélemy",
        "name_it": "Saint-Barthélemy",
        "name_en": "St. Barthélemy",
        "name_pt": "São Bartolomeu",
        "continent": "NA",
        "alternates": [
            "Saint Barthelemy"
        ]
    },
    {
        "name_ru": "Бермуды",
        "name_mn": "Бермуд",
        "name_fr": "Bermudes",
        "name_sv": "Bermuda",
        "name_sw": "Bermuda",
        "name_es": "Bermudas",
        "name_ar": "برمودا",
        "name_pl": "Bermudy",
        "name_de": "Bermuda",
        "ISO3": "BMU",
        "ISO": "BM",
        "name_tr": "Bermuda",
        "capital": "Hamilton",
        "name_fi": "Bermuda",
        "name_it": "Bermuda",
        "name_en": "Bermuda",
        "continent": "NA",
        "name_pt": "Bermudas"
    },
    {
        "name_ru": "Бруней-Даруссалам",
        "name_mn": "Бруней",
        "name_fr": "Brunéi Darussalam",
        "name_sv": "Brunei",
        "name_sw": "Brunei",
        "name_es": "Brunéi",
        "name_ar": "بروناي",
        "name_pl": "Brunei",
        "name_de": "Brunei Darussalam",
        "ISO3": "BRN",
        "ISO": "BN",
        "name_tr": "Brunei",
        "capital": "Bandar Seri Begawan",
        "name_fi": "Brunei",
        "name_it": "Brunei",
        "name_en": "Brunei",
        "continent": "AS",
        "name_pt": "Brunei"
    },
    {
        "name_ru": "Боливия",
        "name_mn": "Боливи",
        "name_fr": "Bolivie",
        "name_sv": "Bolivia",
        "name_sw": "Bolivia",
        "name_es": "Bolivia",
        "name_ar": "بوليفيا",
        "name_pl": "Boliwia",
        "name_de": "Bolivien",
        "ISO3": "BOL",
        "ISO": "BO",
        "name_tr": "Bolivya",
        "capital": "Sucre",
        "name_fi": "Bolivia",
        "name_it": "Bolivia",
        "name_en": "Bolivia",
        "continent": "SA",
        "name_pt": "Bolívia"
    },
    {
        "name_ru": "Бахрейн",
        "name_mn": "Бахрейн",
        "name_fr": "Bahreïn",
        "name_sv": "Bahrain",
        "name_sw": "Bahareni",
        "name_es": "Baréin",
        "name_ar": "البحرين",
        "name_pl": "Bahrajn",
        "name_de": "Bahrain",
        "ISO3": "BHR",
        "ISO": "BH",
        "name_tr": "Bahreyn",
        "capital": "Manama",
        "name_fi": "Bahrain",
        "name_it": "Bahrein",
        "name_en": "Bahrain",
        "continent": "AS",
        "name_pt": "Bahrein"
    },
    {
        "name_ru": "Бурунди",
        "name_mn": "Бурунди",
        "name_fr": "Burundi",
        "name_sv": "Burundi",
        "name_sw": "Burundi",
        "name_es": "Burundi",
        "name_ar": "بوروندي",
        "name_pl": "Burundi",
        "name_de": "Burundi",
        "ISO3": "BDI",
        "ISO": "BI",
        "name_tr": "Burundi",
        "capital": "Bujumbura",
        "name_fi": "Burundi",
        "name_it": "Burundi",
        "name_en": "Burundi",
        "continent": "AF",
        "name_pt": "Burundi"
    },
    {
        "name_ru": "Бенин",
        "name_mn": "Бенин",
        "name_fr": "Bénin",
        "name_sv": "Benin",
        "name_sw": "Benin",
        "name_es": "Benín",
        "name_ar": "بنين",
        "name_pl": "Benin",
        "name_de": "Benin",
        "ISO3": "BEN",
        "ISO": "BJ",
        "name_tr": "Benin",
        "capital": "Porto-Novo",
        "name_fi": "Benin",
        "name_it": "Benin",
        "name_en": "Benin",
        "continent": "AF",
        "name_pt": "Benin"
    },
    {
        "name_ru": "Бутан",
        "name_mn": "Бутан",
        "name_fr": "Bhoutan",
        "name_sv": "Bhutan",
        "name_sw": "Bhutan",
        "name_es": "Bután",
        "name_ar": "بوتان",
        "name_pl": "Bhutan",
        "name_de": "Bhutan",
        "ISO3": "BTN",
        "ISO": "BT",
        "name_tr": "Butan",
        "capital": "Thimphu",
        "name_fi": "Bhutan",
        "name_it": "Bhutan",
        "name_en": "Bhutan",
        "continent": "AS",
        "name_pt": "Butão"
    },
    {
        "name_ru": "о-в Буве",
        "name_mn": "Буветын арлууд",
        "name_fr": "Île Bouvet",
        "name_sv": "Bouvetön",
        "name_sw": "Kisiwa cha Bouvet",
        "name_es": "Isla Bouvet",
        "name_ar": "جزيرة بوفيه",
        "name_pl": "Wyspa Bouveta",
        "name_de": "Bouvetinsel",
        "ISO3": "BVT",
        "ISO": "BV",
        "name_tr": "Bouvet Adası",
        "capital": "",
        "name_fi": "Bouvet’nsaari",
        "name_it": "Isola Bouvet",
        "name_en": "Bouvet Island",
        "continent": "AN",
        "name_pt": "Ilha Bouvet"
    },
    {
        "name_ru": "Ботсвана",
        "name_mn": "Ботсвана",
        "name_fr": "Botswana",
        "name_sv": "Botswana",
        "name_sw": "Botswana",
        "name_es": "Botsuana",
        "name_ar": "بتسوانا",
        "name_pl": "Botswana",
        "name_de": "Botsuana",
        "ISO3": "BWA",
        "ISO": "BW",
        "name_tr": "Botsvana",
        "capital": "Gaborone",
        "name_fi": "Botswana",
        "name_it": "Botswana",
        "name_en": "Botswana",
        "continent": "AF",
        "name_pt": "Botsuana"
    },
    {
        "name_ru": "Бразилия",
        "name_mn": "Бразил",
        "name_fr": "Brésil",
        "name_sv": "Brasilien",
        "name_sw": "Brazili",
        "name_es": "Brasil",
        "name_ar": "البرازيل",
        "name_pl": "Brazylia",
        "name_de": "Brasilien",
        "ISO3": "BRA",
        "ISO": "BR",
        "name_tr": "Brezilya",
        "capital": "Brasilia",
        "name_fi": "Brasilia",
        "name_it": "Brasile",
        "name_en": "Brazil",
        "continent": "SA",
        "name_pt": "Brasil"
    },
    {
        "name_ru": "Беларусь",
        "name_mn": "Беларусь",
        "name_fr": "Biélorussie",
        "name_sv": "Vitryssland",
        "name_sw": "Belarusi",
        "name_es": "Bielorrusia",
        "name_ar": "بيلاروس",
        "name_pl": "Białoruś",
        "name_de": "Belarus",
        "ISO3": "BLR",
        "ISO": "BY",
        "name_tr": "Belarus",
        "capital": "Minsk",
        "name_fi": "Valko-Venäjä",
        "name_it": "Bielorussia",
        "name_en": "Belarus",
        "continent": "EU",
        "name_pt": "Bielorrússia"
    },
    {
        "name_ru": "Белиз",
        "name_mn": "Белиз",
        "name_fr": "Belize",
        "name_sv": "Belize",
        "name_sw": "Belize",
        "name_es": "Belice",
        "name_ar": "بليز",
        "name_pl": "Belize",
        "name_de": "Belize",
        "ISO3": "BLZ",
        "ISO": "BZ",
        "name_tr": "Belize",
        "capital": "Belmopan",
        "name_fi": "Belize",
        "name_it": "Belize",
        "name_en": "Belize",
        "continent": "NA",
        "name_pt": "Belize"
    },
    {
        "name_ru": "Латвия",
        "name_mn": "Латви",
        "name_fr": "Lettonie",
        "name_sv": "Lettland",
        "name_sw": "Latvia",
        "name_es": "Letonia",
        "name_ar": "لاتفيا",
        "name_pl": "Łotwa",
        "name_de": "Lettland",
        "ISO3": "LVA",
        "ISO": "LV",
        "name_tr": "Letonya",
        "capital": "Riga",
        "name_fi": "Latvia",
        "name_it": "Lettonia",
        "name_en": "Latvia",
        "continent": "EU",
        "name_pt": "Letônia"
    },
    {
        "name_ru": "Руанда",
        "name_mn": "Руанда",
        "name_fr": "Rwanda",
        "name_sv": "Rwanda",
        "name_sw": "Rwanda",
        "name_es": "Ruanda",
        "name_ar": "رواندا",
        "name_pl": "Rwanda",
        "name_de": "Ruanda",
        "ISO3": "RWA",
        "ISO": "RW",
        "name_tr": "Ruanda",
        "capital": "Kigali",
        "name_fi": "Ruanda",
        "name_it": "Ruanda",
        "name_en": "Rwanda",
        "continent": "AF",
        "name_pt": "Ruanda"
    },
    {
        "name_ru": "Тунис",
        "name_mn": "Тунис",
        "name_fr": "Tunisie",
        "name_sv": "Tunisien",
        "name_sw": "Tunisia",
        "name_es": "Túnez",
        "name_ar": "تونس",
        "name_pl": "Tunezja",
        "name_de": "Tunesien",
        "ISO3": "TUN",
        "ISO": "TN",
        "name_tr": "Tunus",
        "capital": "Tunis",
        "name_fi": "Tunisia",
        "name_it": "Tunisia",
        "name_en": "Tunisia",
        "continent": "AF",
        "name_pt": "Tunísia"
    },
    {
        "name_ru": "Сербия",
        "name_mn": "Серби",
        "name_fr": "Serbie",
        "name_sv": "Serbien",
        "name_sw": "Serbia",
        "name_es": "Serbia",
        "name_ar": "صربيا",
        "name_pl": "Serbia",
        "name_de": "Serbien",
        "ISO3": "SRB",
        "ISO": "RS",
        "name_tr": "Sırbistan",
        "capital": "Belgrade",
        "name_fi": "Serbia",
        "name_it": "Serbia",
        "name_en": "Serbia",
        "continent": "EU",
        "name_pt": "Sérvia"
    },
    {
        "name_ru": "Восточный Тимор",
        "name_mn": "Тимор-Лесте",
        "name_fr": "Timor oriental",
        "name_sv": "Östtimor",
        "name_sw": "Timor-Leste",
        "name_es": "Timor-Leste",
        "name_ar": "تيمور- ليشتي",
        "name_pl": "Timor Wschodni",
        "name_de": "Osttimor",
        "ISO3": "TLS",
        "ISO": "TL",
        "name_tr": "Timor-Leste",
        "capital": "Dili",
        "name_fi": "Itä-Timor",
        "name_it": "Timor Leste",
        "name_en": "Timor-Leste",
        "alternates": [
            "TL",
            "Зүүн Тимор",
            "Timor-Leste",
            "Тимор-Лесте",
            "TL",
            "República Democrática de Timor-Leste",
            "Timor ya Mashariki",
            "East Timor",
            "Timor Est",
            "Timor-Oriental",
            "Timor Oriental",
            "تيمور الشرقية",
            "Timor-Leste",
            "Doğu Timor"
        ],
        "continent": "OC",
        "name_pt": "Timor-Leste"
    },
    {
        "name_ru": "Реюньон",
        "name_mn": "Реюньон",
        "name_fr": "La Réunion",
        "name_sv": "Réunion",
        "name_sw": "Riyunioni",
        "name_es": "Reunión",
        "name_ar": "روينيون",
        "name_pl": "Reunion",
        "name_de": "Réunion",
        "ISO3": "REU",
        "ISO": "RE",
        "name_tr": "Réunion",
        "capital": "Saint-Denis",
        "name_fi": "Réunion",
        "name_it": "Riunione",
        "name_en": "Réunion",
        "name_pt": "Reunião",
        "continent": "AF",
        "alternates": [
            "Reunion"
        ]
    },
    {
        "name_ru": "Туркменистан",
        "name_mn": "Туркменистан",
        "name_fr": "Turkménistan",
        "name_sv": "Turkmenistan",
        "name_sw": "Turukimenistani",
        "name_es": "Turkmenistán",
        "name_ar": "تركمانستان",
        "name_pl": "Turkmenistan",
        "name_de": "Turkmenistan",
        "ISO3": "TKM",
        "ISO": "TM",
        "name_tr": "Türkmenistan",
        "capital": "Ashgabat",
        "name_fi": "Turkmenistan",
        "name_it": "Turkmenistan",
        "name_en": "Turkmenistan",
        "continent": "AS",
        "name_pt": "Turcomenistão"
    },
    {
        "name_ru": "Оман",
        "name_mn": "Оман",
        "name_fr": "Oman",
        "name_sv": "Oman",
        "name_sw": "Oman",
        "name_es": "Omán",
        "name_ar": "عُمان",
        "name_pl": "Oman",
        "name_de": "Oman",
        "ISO3": "OMN",
        "ISO": "OM",
        "name_tr": "Umman",
        "capital": "Muscat",
        "name_fi": "Oman",
        "name_it": "Oman",
        "name_en": "Oman",
        "continent": "AS",
        "name_pt": "Omã"
    },
    {
        "name_ru": "Таджикистан",
        "name_mn": "Тажикистан",
        "name_fr": "Tadjikistan",
        "name_sv": "Tadzjikistan",
        "name_sw": "Tajikistani",
        "name_es": "Tayikistán",
        "name_ar": "طاجيكستان",
        "name_pl": "Tadżykistan",
        "name_de": "Tadschikistan",
        "ISO3": "TJK",
        "ISO": "TJ",
        "name_tr": "Tacikistan",
        "capital": "Dushanbe",
        "name_fi": "Tadžikistan",
        "name_it": "Tagikistan",
        "name_en": "Tajikistan",
        "continent": "AS",
        "name_pt": "Tajiquistão"
    },
    {
        "name_ru": "Румыния",
        "name_mn": "Румын",
        "name_fr": "Roumanie",
        "name_sv": "Rumänien",
        "name_sw": "Romania",
        "name_es": "Rumanía",
        "name_ar": "رومانيا",
        "name_pl": "Rumunia",
        "name_de": "Rumänien",
        "ISO3": "ROU",
        "ISO": "RO",
        "name_tr": "Romanya",
        "capital": "Bucharest",
        "name_fi": "Romania",
        "name_it": "Romania",
        "name_en": "Romania",
        "continent": "EU",
        "name_pt": "Romênia"
    },
    {
        "name_ru": "Токелау",
        "name_mn": "Токелау",
        "name_fr": "Tokélaou",
        "name_sv": "Tokelau",
        "name_sw": "Tokelau",
        "name_es": "Tokelau",
        "name_ar": "توكيلو",
        "name_pl": "Tokelau",
        "name_de": "Tokelau",
        "ISO3": "TKL",
        "ISO": "TK",
        "name_tr": "Tokelau",
        "capital": "",
        "name_fi": "Tokelau",
        "name_it": "Tokelau",
        "name_en": "Tokelau",
        "continent": "OC",
        "name_pt": "Tokelau"
    },
    {
        "name_ru": "Гвинея-Бисау",
        "name_mn": "Гвиней-Бисау",
        "name_fr": "Guinée-Bissau",
        "name_sv": "Guinea-Bissau",
        "name_sw": "Ginebisau",
        "name_es": "Guinea-Bisáu",
        "name_ar": "غينيا بيساو",
        "name_pl": "Gwinea Bissau",
        "name_de": "Guinea-Bissau",
        "ISO3": "GNB",
        "ISO": "GW",
        "name_tr": "Gine-Bissau",
        "capital": "Bissau",
        "name_fi": "Guinea-Bissau",
        "name_it": "Guinea-Bissau",
        "name_en": "Guinea-Bissau",
        "continent": "AF",
        "name_pt": "Guiné-Bissau"
    },
    {
        "name_ru": "Гуам",
        "name_mn": "Гуам",
        "name_fr": "Guam",
        "name_sv": "Guam",
        "name_sw": "Guam",
        "name_es": "Guam",
        "name_ar": "غوام",
        "name_pl": "Guam",
        "name_de": "Guam",
        "ISO3": "GUM",
        "ISO": "GU",
        "name_tr": "Guam",
        "capital": "Hagatna",
        "name_fi": "Guam",
        "name_it": "Guam",
        "name_en": "Guam",
        "continent": "OC",
        "name_pt": "Guam"
    },
    {
        "name_ru": "Гватемала",
        "name_mn": "Гватемал",
        "name_fr": "Guatemala",
        "name_sv": "Guatemala",
        "name_sw": "Guatemala",
        "name_es": "Guatemala",
        "name_ar": "غواتيمالا",
        "name_pl": "Gwatemala",
        "name_de": "Guatemala",
        "ISO3": "GTM",
        "ISO": "GT",
        "name_tr": "Guatemala",
        "capital": "Guatemala City",
        "name_fi": "Guatemala",
        "name_it": "Guatemala",
        "name_en": "Guatemala",
        "continent": "NA",
        "name_pt": "Guatemala"
    },
    {
        "name_ru": "Южная Георгия и Южные Сандвичевы о-ва",
        "name_mn": "Өмнөд Жоржиа ба Өмнөд Сэндвичийн Арлууд",
        "name_fr": "Géorgie du Sud et îles Sandwich du Sud",
        "name_sv": "Sydgeorgien och Sydsandwichöarna",
        "name_sw": "Jojia Kusini na Visiwa vya Sandwich Kusini",
        "name_es": "Islas Georgia del Sur y Sandwich del Sur",
        "name_ar": "جورجيا الجنوبية وجزر ساندويتش الجنوبية",
        "name_pl": "Georgia Południowa i Sandwich Południowy",
        "name_de": "Südgeorgien und die Südlichen Sandwichinseln",
        "ISO3": "SGS",
        "ISO": "GS",
        "name_tr": "Güney Georgia ve Güney Sandwich Adaları",
        "capital": "Grytviken",
        "name_fi": "Etelä-Georgia ja Eteläiset Sandwichsaaret",
        "name_it": "Georgia del Sud e Sandwich australi",
        "name_en": "South Georgia & South Sandwich Islands",
        "name_pt": "Ilhas Geórgia do Sul e Sandwich do Sul",
        "continent": "AN",
        "alternates": [
            "South Georgia and the South Sandwich Islands"
        ]
    },
    {
        "name_ru": "Греция",
        "name_mn": "Грек",
        "name_fr": "Grèce",
        "name_sv": "Grekland",
        "name_sw": "Ugiriki",
        "name_es": "Grecia",
        "name_ar": "اليونان",
        "name_pl": "Grecja",
        "name_de": "Griechenland",
        "ISO3": "GRC",
        "ISO": "GR",
        "name_tr": "Yunanistan",
        "capital": "Athens",
        "name_fi": "Kreikka",
        "name_it": "Grecia",
        "name_en": "Greece",
        "name_pt": "Grécia",
        "continent": "EU",
        "alternative_spellings": "Ελλάδα"
    },
    {
        "name_ru": "Экваториальная Гвинея",
        "name_mn": "Экваторын Гвиней",
        "name_fr": "Guinée équatoriale",
        "name_sv": "Ekvatorialguinea",
        "name_sw": "Ginekweta",
        "name_es": "Guinea Ecuatorial",
        "name_ar": "غينيا الاستوائية",
        "name_pl": "Gwinea Równikowa",
        "name_de": "Äquatorialguinea",
        "ISO3": "GNQ",
        "ISO": "GQ",
        "name_tr": "Ekvator Ginesi",
        "capital": "Malabo",
        "name_fi": "Päiväntasaajan Guinea",
        "name_it": "Guinea Equatoriale",
        "name_en": "Equatorial Guinea",
        "continent": "AF",
        "name_pt": "Guiné Equatorial"
    },
    {
        "name_ru": "Гваделупа",
        "name_mn": "Гваделуп",
        "name_fr": "Guadeloupe",
        "name_sv": "Guadeloupe",
        "name_sw": "Guadeloupe",
        "name_es": "Guadalupe",
        "name_ar": "غوادلوب",
        "name_pl": "Gwadelupa",
        "name_de": "Guadeloupe",
        "ISO3": "GLP",
        "ISO": "GP",
        "name_tr": "Guadalupe",
        "capital": "Basse-Terre",
        "name_fi": "Guadeloupe",
        "name_it": "Guadalupa",
        "name_en": "Guadeloupe",
        "continent": "NA",
        "name_pt": "Guadalupe"
    },
    {
        "name_ru": "Япония",
        "name_mn": "Япон",
        "name_fr": "Japon",
        "name_sv": "Japan",
        "name_sw": "Japani",
        "name_es": "Japón",
        "name_ar": "اليابان",
        "name_pl": "Japonia",
        "name_de": "Japan",
        "ISO3": "JPN",
        "ISO": "JP",
        "name_tr": "Japonya",
        "capital": "Tokyo",
        "name_fi": "Japani",
        "name_it": "Giappone",
        "name_en": "Japan",
        "name_pt": "Japão",
        "continent": "AS",
        "alternative_spellings": "Nippon Nihon 日本"
    },
    {
        "name_ru": "Кирибати",
        "name_mn": "Кирибати",
        "name_fr": "Kiribati",
        "name_sv": "Kiribati",
        "name_sw": "Kiribati",
        "name_es": "Kiribati",
        "name_ar": "كيريباتي",
        "name_pl": "Kiribati",
        "name_de": "Kiribati",
        "ISO3": "KIR",
        "ISO": "KI",
        "name_tr": "Kiribati",
        "capital": "Tarawa",
        "name_fi": "Kiribati",
        "name_it": "Kiribati",
        "name_en": "Kiribati",
        "continent": "OC",
        "name_pt": "Quiribati"
    },
    {
        "name_ru": "Гайана",
        "name_mn": "Гайана",
        "name_fr": "Guyana",
        "name_sv": "Guyana",
        "name_sw": "Guyana",
        "name_es": "Guyana",
        "name_ar": "غيانا",
        "name_pl": "Gujana",
        "name_de": "Guyana",
        "ISO3": "GUY",
        "ISO": "GY",
        "name_tr": "Guyana",
        "capital": "Georgetown",
        "name_fi": "Guyana",
        "name_it": "Guyana",
        "name_en": "Guyana",
        "continent": "SA",
        "name_pt": "Guiana"
    },
    {
        "name_ru": "Гернси",
        "name_mn": "Гернси",
        "name_fr": "Guernesey",
        "name_sv": "Guernsey",
        "name_sw": "Guernsey",
        "name_es": "Guernesey",
        "name_ar": "غيرنزي",
        "name_pl": "Guernsey",
        "name_de": "Guernsey",
        "ISO3": "GGY",
        "ISO": "GG",
        "name_tr": "Guernsey",
        "capital": "St Peter Port",
        "name_fi": "Guernsey",
        "name_it": "Guernsey",
        "name_en": "Guernsey",
        "name_pt": "Guernsey",
        "continent": "EU",
        "alternative_spellings": "Sark Sèr Cerq Sercq Alderney Aoeur'gny Aurigny"
    },
    {
        "name_ru": "Французская Гвиана",
        "name_mn": "Францын Гайана",
        "name_fr": "Guyane française",
        "name_sv": "Franska Guyana",
        "name_sw": "Gwiyana ya Ufaransa",
        "name_es": "Guayana Francesa",
        "name_ar": "غويانا الفرنسية",
        "name_pl": "Gujana Francuska",
        "name_de": "Französisch-Guayana",
        "ISO3": "GUF",
        "ISO": "GF",
        "name_tr": "Fransız Guyanası",
        "capital": "Cayenne",
        "name_fi": "Ranskan Guayana",
        "name_it": "Guyana francese",
        "name_en": "French Guiana",
        "continent": "SA",
        "name_pt": "Guiana Francesa"
    },
    {
        "name_ru": "Грузия",
        "name_mn": "Гүрж",
        "name_fr": "Géorgie",
        "name_sv": "Georgien",
        "name_sw": "Jojia",
        "name_es": "Georgia",
        "name_ar": "جورجيا",
        "name_pl": "Gruzja",
        "name_de": "Georgien",
        "ISO3": "GEO",
        "ISO": "GE",
        "name_tr": "Gürcistan",
        "capital": "Tbilisi",
        "name_fi": "Georgia",
        "name_it": "Georgia",
        "name_en": "Georgia",
        "continent": "AS",
        "name_pt": "Geórgia"
    },
    {
        "name_ru": "Гренада",
        "name_mn": "Гренада",
        "name_fr": "Grenade",
        "name_sv": "Grenada",
        "name_sw": "Grenada",
        "name_es": "Granada",
        "name_ar": "غرينادا",
        "name_pl": "Grenada",
        "name_de": "Grenada",
        "ISO3": "GRD",
        "ISO": "GD",
        "name_tr": "Grenada",
        "capital": "St. George's",
        "name_fi": "Grenada",
        "name_it": "Grenada",
        "name_en": "Grenada",
        "continent": "NA",
        "name_pt": "Granada"
    },
    {
        "name_ru": "Великобритания",
        "name_mn": "Их Британи",
        "name_fr": "Royaume-Uni",
        "name_sv": "Storbritannien",
        "name_sw": "Uingereza",
        "name_es": "Reino Unido",
        "name_ar": "المملكة المتحدة",
        "name_pl": "Wielka Brytania",
        "name_de": "Vereinigtes Königreich",
        "ISO3": "GBR",
        "ISO": "GB",
        "name_tr": "Birleşik Krallık",
        "capital": "London",
        "name_fi": "Iso-Britannia",
        "name_it": "Regno Unito",
        "name_en": "United Kingdom",
        "name_pt": "Reino Unido",
        "alternates": [
            "GB",
            "ИБ",
            "Britannia",
            "Британия",
            "Storbritannien",
            "Reino Unido",
            "Uingereza",
            "UK",
            "UK",
            "R.-U.",
            "RU",
            "المملكة المتحدة",
            "Wlk. Bryt.",
            "BK"
        ],
        "continent": "EU",
        "alternative_spellings": "Great Britain England UK Wales Scotland Northern Ireland"
    },
    {
        "name_ru": "Габон",
        "name_mn": "Габон",
        "name_fr": "Gabon",
        "name_sv": "Gabon",
        "name_sw": "Gabon",
        "name_es": "Gabón",
        "name_ar": "الغابون",
        "name_pl": "Gabon",
        "name_de": "Gabun",
        "ISO3": "GAB",
        "ISO": "GA",
        "name_tr": "Gabon",
        "capital": "Libreville",
        "name_fi": "Gabon",
        "name_it": "Gabon",
        "name_en": "Gabon",
        "continent": "AF",
        "name_pt": "Gabão"
    },
    {
        "name_ru": "Сальвадор",
        "name_mn": "Эль Сальвадор",
        "name_fr": "El Salvador",
        "name_sv": "El Salvador",
        "name_sw": "Elsavado",
        "name_es": "El Salvador",
        "name_ar": "السلفادور",
        "name_pl": "Salwador",
        "name_de": "El Salvador",
        "ISO3": "SLV",
        "ISO": "SV",
        "name_tr": "El Salvador",
        "capital": "San Salvador",
        "name_fi": "El Salvador",
        "name_it": "El Salvador",
        "name_en": "El Salvador",
        "continent": "NA",
        "name_pt": "El Salvador"
    },
    {
        "name_ru": "Гвинея",
        "name_mn": "Гвиней",
        "name_fr": "Guinée",
        "name_sv": "Guinea",
        "name_sw": "Gine",
        "name_es": "Guinea",
        "name_ar": "غينيا",
        "name_pl": "Gwinea",
        "name_de": "Guinea",
        "ISO3": "GIN",
        "ISO": "GN",
        "name_tr": "Gine",
        "capital": "Conakry",
        "name_fi": "Guinea",
        "name_it": "Guinea",
        "name_en": "Guinea",
        "continent": "AF",
        "name_pt": "Guiné"
    },
    {
        "name_ru": "Гамбия",
        "name_mn": "Гамби",
        "name_fr": "Gambie",
        "name_sv": "Gambia",
        "name_sw": "Gambia",
        "name_es": "Gambia",
        "name_ar": "غامبيا",
        "name_pl": "Gambia",
        "name_de": "Gambia",
        "ISO3": "GMB",
        "ISO": "GM",
        "name_tr": "Gambiya",
        "capital": "Banjul",
        "name_fi": "Gambia",
        "name_it": "Gambia",
        "name_en": "Gambia",
        "continent": "AF",
        "name_pt": "Gâmbia"
    },
    {
        "name_ru": "Гренландия",
        "name_mn": "Гренланд",
        "name_fr": "Groenland",
        "name_sv": "Grönland",
        "name_sw": "Grinlandi",
        "name_es": "Groenlandia",
        "name_ar": "غرينلاند",
        "name_pl": "Grenlandia",
        "name_de": "Grönland",
        "ISO3": "GRL",
        "ISO": "GL",
        "name_tr": "Grönland",
        "capital": "Nuuk",
        "name_fi": "Grönlanti",
        "name_it": "Groenlandia",
        "name_en": "Greenland",
        "name_pt": "Groenlândia",
        "continent": "NA",
        "alternative_spellings": "grønland"
    },
    {
        "name_ru": "Гибралтар",
        "name_mn": "Гибралтар",
        "name_fr": "Gibraltar",
        "name_sv": "Gibraltar",
        "name_sw": "Jibralta",
        "name_es": "Gibraltar",
        "name_ar": "جبل طارق",
        "name_pl": "Gibraltar",
        "name_de": "Gibraltar",
        "ISO3": "GIB",
        "ISO": "GI",
        "name_tr": "Cebelitarık",
        "capital": "Gibraltar",
        "name_fi": "Gibraltar",
        "name_it": "Gibilterra",
        "name_en": "Gibraltar",
        "continent": "EU",
        "name_pt": "Gibraltar"
    },
    {
        "name_ru": "Гана",
        "name_mn": "Гана",
        "name_fr": "Ghana",
        "name_sv": "Ghana",
        "name_sw": "Ghana",
        "name_es": "Ghana",
        "name_ar": "غانا",
        "name_pl": "Ghana",
        "name_de": "Ghana",
        "ISO3": "GHA",
        "ISO": "GH",
        "name_tr": "Gana",
        "capital": "Accra",
        "name_fi": "Ghana",
        "name_it": "Ghana",
        "name_en": "Ghana",
        "continent": "AF",
        "name_pt": "Gana"
    },
    {
        "name_ru": "Джерси",
        "name_mn": "Жерси",
        "name_fr": "Jersey",
        "name_sv": "Jersey",
        "name_sw": "Jersey",
        "name_es": "Jersey",
        "name_ar": "جيرسي",
        "name_pl": "Jersey",
        "name_de": "Jersey",
        "ISO3": "JEY",
        "ISO": "JE",
        "name_tr": "Jersey",
        "capital": "Saint Helier",
        "name_fi": "Jersey",
        "name_it": "Jersey",
        "name_en": "Jersey",
        "continent": "EU",
        "name_pt": "Jersey"
    },
    {
        "name_ru": "Ямайка",
        "name_mn": "Ямайк",
        "name_fr": "Jamaïque",
        "name_sv": "Jamaica",
        "name_sw": "Jamaika",
        "name_es": "Jamaica",
        "name_ar": "جامايكا",
        "name_pl": "Jamajka",
        "name_de": "Jamaika",
        "ISO3": "JAM",
        "ISO": "JM",
        "name_tr": "Jamaika",
        "capital": "Kingston",
        "name_fi": "Jamaika",
        "name_it": "Giamaica",
        "name_en": "Jamaica",
        "continent": "NA",
        "name_pt": "Jamaica"
    },
    {
        "name_ru": "Уругвай",
        "name_mn": "Уругвай",
        "name_fr": "Uruguay",
        "name_sv": "Uruguay",
        "name_sw": "Urugwai",
        "name_es": "Uruguay",
        "name_ar": "أورغواي",
        "name_pl": "Urugwaj",
        "name_de": "Uruguay",
        "ISO3": "URY",
        "ISO": "UY",
        "name_tr": "Uruguay",
        "capital": "Montevideo",
        "name_fi": "Uruguay",
        "name_it": "Uruguay",
        "name_en": "Uruguay",
        "continent": "SA",
        "name_pt": "Uruguai"
    },
    {
        "name_ru": "Самоа",
        "name_mn": "Самоа",
        "name_fr": "Samoa",
        "name_sv": "Samoa",
        "name_sw": "Samoa",
        "name_es": "Samoa",
        "name_ar": "ساموا",
        "name_pl": "Samoa",
        "name_de": "Samoa",
        "ISO3": "WSM",
        "ISO": "WS",
        "name_tr": "Samoa",
        "capital": "Apia",
        "name_fi": "Samoa",
        "name_it": "Samoa",
        "name_en": "Samoa",
        "continent": "OC",
        "name_pt": "Samoa"
    },
    {
        "name_ru": "Тристан-да-Кунья",
        "name_mn": "Тристан да Кунья",
        "name_fr": "Tristan da Cunha",
        "name_sv": "Tristan da Cunha",
        "name_sw": "Tristan da Cunha",
        "name_es": "Tristán de Acuña",
        "name_ar": "تريستان دي كونها",
        "name_pl": "Tristan da Cunha",
        "name_de": "Tristan da Cunha",
        "ISO": "TA",
        "name_tr": "Tristan da Cunha",
        "name_fi": "Tristan da Cunha",
        "name_it": "Tristan da Cunha",
        "name_en": "Tristan da Cunha",
        "name_pt": "Tristão da Cunha"
    },
    {
        "name_ru": "Бонэйр, Синт-Эстатиус и Саба",
        "name_mn": "Карибын Нидерланд",
        "name_fr": "Pays-Bas caribéens",
        "name_sv": "Karibiska Nederländerna",
        "name_sw": "Uholanzi ya Karibiani",
        "name_es": "Caribe neerlandés",
        "name_ar": "هولندا الكاريبية",
        "name_pl": "Niderlandy Karaibskie",
        "name_de": "Bonaire, Sint Eustatius und Saba",
        "ISO3": "BES",
        "ISO": "BQ",
        "name_tr": "Karayip Hollanda",
        "capital": "",
        "name_fi": "Karibian Alankomaat",
        "name_it": "Caraibi olandesi",
        "name_en": "Caribbean Netherlands",
        "name_pt": "Países Baixos Caribenhos",
        "continent": "NA",
        "alternates": [
            "Bonaire, Saint Eustatius and Saba "
        ]
    },
    {
        "name_ru": "Хорватия",
        "name_mn": "Хорват",
        "name_fr": "Croatie",
        "name_sv": "Kroatien",
        "name_sw": "Korasia",
        "name_es": "Croacia",
        "name_ar": "كرواتيا",
        "name_pl": "Chorwacja",
        "name_de": "Kroatien",
        "ISO3": "HRV",
        "ISO": "HR",
        "name_tr": "Hırvatistan",
        "capital": "Zagreb",
        "name_fi": "Kroatia",
        "name_it": "Croazia",
        "name_en": "Croatia",
        "continent": "EU",
        "name_pt": "Croácia"
    },
    {
        "name_ru": "Багамы",
        "name_mn": "Багам",
        "name_fr": "Bahamas",
        "name_sv": "Bahamas",
        "name_sw": "Bahama",
        "name_es": "Bahamas",
        "name_ar": "البهاما",
        "name_pl": "Bahamy",
        "name_de": "Bahamas",
        "ISO3": "BHS",
        "ISO": "BS",
        "name_tr": "Bahamalar",
        "capital": "Nassau",
        "name_fi": "Bahama",
        "name_it": "Bahamas",
        "name_en": "Bahamas",
        "continent": "NA",
        "name_pt": "Bahamas"
    },
    {
        "name_ru": "Гаити",
        "name_mn": "Гаити",
        "name_fr": "Haïti",
        "name_sv": "Haiti",
        "name_sw": "Haiti",
        "name_es": "Haití",
        "name_ar": "هايتي",
        "name_pl": "Haiti",
        "name_de": "Haiti",
        "ISO3": "HTI",
        "ISO": "HT",
        "name_tr": "Haiti",
        "capital": "Port-au-Prince",
        "name_fi": "Haiti",
        "name_it": "Haiti",
        "name_en": "Haiti",
        "continent": "NA",
        "name_pt": "Haiti"
    },
    {
        "name_ru": "Венгрия",
        "name_mn": "Унгар",
        "name_fr": "Hongrie",
        "name_sv": "Ungern",
        "name_sw": "Hungaria",
        "name_es": "Hungría",
        "name_ar": "هنغاريا",
        "name_pl": "Węgry",
        "name_de": "Ungarn",
        "ISO3": "HUN",
        "ISO": "HU",
        "name_tr": "Macaristan",
        "capital": "Budapest",
        "name_fi": "Unkari",
        "name_it": "Ungheria",
        "name_en": "Hungary",
        "continent": "EU",
        "name_pt": "Hungria"
    },
    {
        "name_ru": "Гонконг (специальный административный район)",
        "name_mn": "БНХАУ-ын Тусгай захиргааны бүс Хонг Конг",
        "name_fr": "R.A.S. chinoise de Hong Kong",
        "name_sv": "Hongkong, S.A.R. Kina",
        "name_sw": "Hong Kong SAR China",
        "name_es": "RAE de Hong Kong (China)",
        "name_ar": "هونغ كونغ الصينية",
        "name_pl": "SRA Hongkong (Chiny)",
        "name_de": "Sonderverwaltungszone Hongkong",
        "ISO3": "HKG",
        "ISO": "HK",
        "name_tr": "Çin Hong Kong ÖİB",
        "capital": "Hong Kong",
        "name_fi": "Hongkong – Kiinan e.h.a.",
        "name_it": "RAS di Hong Kong",
        "name_en": "Hong Kong SAR China",
        "alternates": [
            "Hongkong",
            "Хонг Конг",
            "Hongkong",
            "Гонконг",
            "Hongkong",
            "Hong Kong",
            "Hong Kong",
            "Hong Kong",
            "Hong Kong",
            "Hong Kong",
            "Hong Kong",
            "هونغ كونغ",
            "Hongkong",
            "Hong Kong"
        ],
        "continent": "AS",
        "name_pt": "Hong Kong, RAE da China"
    },
    {
        "name_ru": "Гондурас",
        "name_mn": "Гондурас",
        "name_fr": "Honduras",
        "name_sv": "Honduras",
        "name_sw": "Hondurasi",
        "name_es": "Honduras",
        "name_ar": "هندوراس",
        "name_pl": "Honduras",
        "name_de": "Honduras",
        "ISO3": "HND",
        "ISO": "HN",
        "name_tr": "Honduras",
        "capital": "Tegucigalpa",
        "name_fi": "Honduras",
        "name_it": "Honduras",
        "name_en": "Honduras",
        "continent": "NA",
        "name_pt": "Honduras"
    },
    {
        "name_ru": "Финляндия",
        "name_mn": "Финланд",
        "name_fr": "Finlande",
        "name_sv": "Finland",
        "name_sw": "Ufini",
        "name_es": "Finlandia",
        "name_ar": "فنلندا",
        "name_pl": "Finlandia",
        "name_de": "Finnland",
        "ISO3": "FIN",
        "ISO": "FI",
        "name_tr": "Finlandiya",
        "capital": "Helsinki",
        "name_fi": "Suomi",
        "name_it": "Finlandia",
        "name_en": "Finland",
        "continent": "EU",
        "name_pt": "Finlândia"
    },
    {
        "name_ru": "Пуэрто-Рико",
        "name_mn": "Пуэрто Рико",
        "name_fr": "Porto Rico",
        "name_sv": "Puerto Rico",
        "name_sw": "Puerto Rico",
        "name_es": "Puerto Rico",
        "name_ar": "بورتوريكو",
        "name_pl": "Portoryko",
        "name_de": "Puerto Rico",
        "ISO3": "PRI",
        "ISO": "PR",
        "name_tr": "Porto Riko",
        "capital": "San Juan",
        "name_fi": "Puerto Rico",
        "name_it": "Portorico",
        "name_en": "Puerto Rico",
        "continent": "NA",
        "name_pt": "Porto Rico"
    },
    {
        "name_ru": "Палестинские территории",
        "name_mn": "Палестины нутаг дэвсгэрүүд",
        "name_fr": "Territoires palestiniens",
        "name_sv": "Palestinska territorierna",
        "name_sw": "Maeneo ya Palestina",
        "name_es": "Territorios Palestinos",
        "name_ar": "الأراضي الفلسطينية",
        "name_pl": "Terytoria Palestyńskie",
        "name_de": "Palästinensische Autonomiegebiete",
        "ISO3": "PSE",
        "ISO": "PS",
        "name_tr": "Filistin Bölgeleri",
        "capital": "East Jerusalem",
        "name_fi": "Palestiinalaisalueet",
        "name_it": "Territori palestinesi",
        "name_en": "Palestinian Territories",
        "name_pt": "Territórios palestinos",
        "alternates": [
            "Palästina",
            "Палестин",
            "Palestiina",
            "Палестина",
            "Palestina",
            "Palestina",
            "Palestina",
            "Palestine",
            "Palestina",
            "Palestine",
            "Palestina",
            "فلسطين",
            "Palestyna",
            "Filistin"
        ],
        "continent": "AS",
        "alternative_spellings": "gaza"
    },
    {
        "name_ru": "Фолклендские о-ва",
        "name_mn": "Фолькландын Арлууд",
        "name_fr": "Îles Malouines",
        "name_sv": "Falklandsöarna",
        "name_sw": "Visiwa vya Falkland",
        "name_es": "Islas Malvinas",
        "name_ar": "جزر فوكلاند",
        "name_pl": "Falklandy",
        "name_de": "Falklandinseln",
        "ISO3": "FLK",
        "ISO": "FK",
        "name_tr": "Falkland Adaları",
        "capital": "Stanley",
        "name_fi": "Falklandinsaaret",
        "name_it": "Isole Falkland",
        "name_en": "Falkland Islands",
        "alternates": [
            "Falklandinseln (Malwinen)",
            "Фолькландын Арлууд (Ислас Мальвинас)",
            "Falklandinsaaret (Malvinassaaret)",
            "Фолклендские (Мальвинские) о-ва",
            "FK",
            "Ilhas Falkland (Ilhas Malvinas)",
            "Visiwa vya Falkland (Islas Malvinas)",
            "Falkland Islands (Islas Malvinas)",
            "Isole Falkland (Isole Malvine)",
            "Îles Falkland",
            "Islas Malvinas (Islas Falkland)",
            "جزر فوكلاند - جزر مالفيناس",
            "Falklandy (Malwiny)",
            "Falkland Adaları (Malvinas Adaları)"
        ],
        "continent": "SA",
        "name_pt": "Ilhas Malvinas"
    },
    {
        "name_ru": "Британская территория в Индийском океане",
        "name_mn": "Британийн харьяа Энэтхэгийн далай дахь нутаг дэвсгэрүүд",
        "name_fr": "Territoire britannique de l’océan Indien",
        "name_sv": "Brittiska territoriet i Indiska oceanen",
        "name_sw": "Eneo la Uingereza katika Bahari Hindi",
        "name_es": "Territorio Británico del Océano Índico",
        "name_ar": "الإقليم البريطاني في المحيط الهندي",
        "name_pl": "Brytyjskie Terytorium Oceanu Indyjskiego",
        "name_de": "Britisches Territorium im Indischen Ozean",
        "ISO3": "IOT",
        "ISO": "IO",
        "name_tr": "Britanya Hint Okyanusu Toprakları",
        "capital": "Diego Garcia",
        "name_fi": "Brittiläinen Intian valtameren alue",
        "name_it": "Territorio britannico dell’Oceano Indiano",
        "name_en": "British Indian Ocean Territory",
        "continent": "AS",
        "name_pt": "Território Britânico do Oceano Índico"
    },
    {
        "name_ru": "Палау",
        "name_mn": "Палау",
        "name_fr": "Palaos",
        "name_sv": "Palau",
        "name_sw": "Palau",
        "name_es": "Palaos",
        "name_ar": "بالاو",
        "name_pl": "Palau",
        "name_de": "Palau",
        "ISO3": "PLW",
        "ISO": "PW",
        "name_tr": "Palau",
        "capital": "Melekeok",
        "name_fi": "Palau",
        "name_it": "Palau",
        "name_en": "Palau",
        "continent": "OC",
        "name_pt": "Palau"
    },
    {
        "name_ru": "Португалия",
        "name_mn": "Португаль",
        "name_fr": "Portugal",
        "name_sv": "Portugal",
        "name_sw": "Ureno",
        "name_es": "Portugal",
        "name_ar": "البرتغال",
        "name_pl": "Portugalia",
        "name_de": "Portugal",
        "ISO3": "PRT",
        "ISO": "PT",
        "name_tr": "Portekiz",
        "capital": "Lisbon",
        "name_fi": "Portugali",
        "name_it": "Portogallo",
        "name_en": "Portugal",
        "name_pt": "Portugal",
        "continent": "EU",
        "alternative_spellings": "Portuguesa"
    },
    {
        "name_ru": "Шпицберген и Ян-Майен",
        "name_mn": "Свалбард ба Ян Майен",
        "name_fr": "Svalbard et Jan Mayen",
        "name_sv": "Svalbard och Jan Mayen",
        "name_sw": "Svalbard na Jan Mayen",
        "name_es": "Svalbard y Jan Mayen",
        "name_ar": "سفالبارد وجان مايان",
        "name_pl": "Svalbard i Jan Mayen",
        "name_de": "Spitzbergen",
        "ISO3": "SJM",
        "ISO": "SJ",
        "name_tr": "Svalbard ve Jan Mayen",
        "capital": "Longyearbyen",
        "name_fi": "Huippuvuoret ja Jan Mayen",
        "name_it": "Svalbard e Jan Mayen",
        "name_en": "Svalbard & Jan Mayen",
        "name_pt": "Svalbard e Jan Mayen",
        "continent": "EU",
        "alternates": [
            "Svalbard and Jan Mayen"
        ]
    },
    {
        "name_ru": "Молдова",
        "name_mn": "Молдав",
        "name_fr": "Moldavie",
        "name_sv": "Moldavien",
        "name_sw": "Moldova",
        "name_es": "Moldavia",
        "name_ar": "مولدوفا",
        "name_pl": "Mołdawia",
        "name_de": "Republik Moldau",
        "ISO3": "MDA",
        "ISO": "MD",
        "name_tr": "Moldova",
        "capital": "Chisinau",
        "name_fi": "Moldova",
        "name_it": "Moldavia",
        "name_en": "Moldova",
        "continent": "EU",
        "name_pt": "Moldávia"
    },
    {
        "name_ru": "Ирак",
        "name_mn": "Ирак",
        "name_fr": "Irak",
        "name_sv": "Irak",
        "name_sw": "Iraki",
        "name_es": "Irak",
        "name_ar": "العراق",
        "name_pl": "Irak",
        "name_de": "Irak",
        "ISO3": "IRQ",
        "ISO": "IQ",
        "name_tr": "Irak",
        "capital": "Baghdad",
        "name_fi": "Irak",
        "name_it": "Iraq",
        "name_en": "Iraq",
        "continent": "AS",
        "name_pt": "Iraque"
    },
    {
        "name_ru": "Панама",
        "name_mn": "Панам",
        "name_fr": "Panama",
        "name_sv": "Panama",
        "name_sw": "Panama",
        "name_es": "Panamá",
        "name_ar": "بنما",
        "name_pl": "Panama",
        "name_de": "Panama",
        "ISO3": "PAN",
        "ISO": "PA",
        "name_tr": "Panama",
        "capital": "Panama City",
        "name_fi": "Panama",
        "name_it": "Panamá",
        "name_en": "Panama",
        "continent": "NA",
        "name_pt": "Panamá"
    },
    {
        "name_ru": "Французская Полинезия",
        "name_mn": "Францын Полинез",
        "name_fr": "Polynésie française",
        "name_sv": "Franska Polynesien",
        "name_sw": "Polinesia ya Ufaransa",
        "name_es": "Polinesia Francesa",
        "name_ar": "بولينيزيا الفرنسية",
        "name_pl": "Polinezja Francuska",
        "name_de": "Französisch-Polynesien",
        "ISO3": "PYF",
        "ISO": "PF",
        "name_tr": "Fransız Polinezyası",
        "capital": "Papeete",
        "name_fi": "Ranskan Polynesia",
        "name_it": "Polinesia francese",
        "name_en": "French Polynesia",
        "continent": "OC",
        "name_pt": "Polinésia Francesa"
    },
    {
        "name_ru": "Папуа – Новая Гвинея",
        "name_mn": "Папуа Шинэ Гвиней",
        "name_fr": "Papouasie-Nouvelle-Guinée",
        "name_sv": "Papua Nya Guinea",
        "name_sw": "Papua New Guinea",
        "name_es": "Papúa Nueva Guinea",
        "name_ar": "بابوا غينيا الجديدة",
        "name_pl": "Papua-Nowa Gwinea",
        "name_de": "Papua-Neuguinea",
        "ISO3": "PNG",
        "ISO": "PG",
        "name_tr": "Papua Yeni Gine",
        "capital": "Port Moresby",
        "name_fi": "Papua-Uusi-Guinea",
        "name_it": "Papua Nuova Guinea",
        "name_en": "Papua New Guinea",
        "continent": "OC",
        "name_pt": "Papua-Nova Guiné"
    },
    {
        "name_ru": "Перу",
        "name_mn": "Перу",
        "name_fr": "Pérou",
        "name_sv": "Peru",
        "name_sw": "Peru",
        "name_es": "Perú",
        "name_ar": "بيرو",
        "name_pl": "Peru",
        "name_de": "Peru",
        "ISO3": "PER",
        "ISO": "PE",
        "name_tr": "Peru",
        "capital": "Lima",
        "name_fi": "Peru",
        "name_it": "Perù",
        "name_en": "Peru",
        "continent": "SA",
        "name_pt": "Peru"
    },
    {
        "name_ru": "Пакистан",
        "name_mn": "Пакистан",
        "name_fr": "Pakistan",
        "name_sv": "Pakistan",
        "name_sw": "Pakistani",
        "name_es": "Pakistán",
        "name_ar": "باكستان",
        "name_pl": "Pakistan",
        "name_de": "Pakistan",
        "ISO3": "PAK",
        "ISO": "PK",
        "name_tr": "Pakistan",
        "capital": "Islamabad",
        "name_fi": "Pakistan",
        "name_it": "Pakistan",
        "name_en": "Pakistan",
        "name_pt": "Paquistão",
        "continent": "AS",
        "alternative_spellings": "پاکستان"
    },
    {
        "name_ru": "Филиппины",
        "name_mn": "Филиппин",
        "name_fr": "Philippines",
        "name_sv": "Filippinerna",
        "name_sw": "Ufilipino",
        "name_es": "Filipinas",
        "name_ar": "الفلبين",
        "name_pl": "Filipiny",
        "name_de": "Philippinen",
        "ISO3": "PHL",
        "ISO": "PH",
        "name_tr": "Filipinler",
        "capital": "Manila",
        "name_fi": "Filippiinit",
        "name_it": "Filippine",
        "name_en": "Philippines",
        "name_pt": "Filipinas",
        "continent": "AS",
        "alternative_spellings": "Pilipinas"
    },
    {
        "name_ru": "Фарерские о-ва",
        "name_mn": "Фароэ Арлууд",
        "name_fr": "Îles Féroé",
        "name_sv": "Färöarna",
        "name_sw": "Visiwa vya Faroe",
        "name_es": "Islas Feroe",
        "name_ar": "جزر فارو",
        "name_pl": "Wyspy Owcze",
        "name_de": "Färöer",
        "ISO3": "FRO",
        "ISO": "FO",
        "name_tr": "Faroe Adaları",
        "capital": "Torshavn",
        "name_fi": "Färsaaret",
        "name_it": "Isole Fær Øer",
        "name_en": "Faroe Islands",
        "name_pt": "Ilhas Faroe",
        "continent": "EU",
        "alternative_spellings": "Føroyar Færøerne"
    },
    {
        "name_ru": "острова Питкэрн",
        "name_mn": "Питкэрн арлууд",
        "name_fr": "Îles Pitcairn",
        "name_sv": "Pitcairnöarna",
        "name_sw": "Visiwa vya Pitcairn",
        "name_es": "Islas Pitcairn",
        "name_ar": "جزر بيتكيرن",
        "name_pl": "Pitcairn",
        "name_de": "Pitcairninseln",
        "ISO3": "PCN",
        "ISO": "PN",
        "name_tr": "Pitcairn Adaları",
        "capital": "Adamstown",
        "name_fi": "Pitcairn",
        "name_it": "Isole Pitcairn",
        "name_en": "Pitcairn Islands",
        "name_pt": "Ilhas Pitcairn",
        "continent": "OC",
        "alternates": [
            "Pitcairn"
        ]
    },
    {
        "name_ru": "Польша",
        "name_mn": "Польш",
        "name_fr": "Pologne",
        "name_sv": "Polen",
        "name_sw": "Polandi",
        "name_es": "Polonia",
        "name_ar": "بولندا",
        "name_pl": "Polska",
        "name_de": "Polen",
        "ISO3": "POL",
        "ISO": "PL",
        "name_tr": "Polonya",
        "capital": "Warsaw",
        "name_fi": "Puola",
        "name_it": "Polonia",
        "name_en": "Poland",
        "continent": "EU",
        "name_pt": "Polônia"
    },
    {
        "name_ru": "Сен-Пьер и Микелон",
        "name_mn": "Сэнт Пьер ба Микелон",
        "name_fr": "Saint-Pierre-et-Miquelon",
        "name_sv": "S:t Pierre och Miquelon",
        "name_sw": "Santapierre na Miquelon",
        "name_es": "San Pedro y Miquelón",
        "name_ar": "سانت بيير وميكولون",
        "name_pl": "Saint-Pierre i Miquelon",
        "name_de": "St. Pierre und Miquelon",
        "ISO3": "SPM",
        "ISO": "PM",
        "name_tr": "Saint Pierre ve Miquelon",
        "capital": "Saint-Pierre",
        "name_fi": "Saint-Pierre ja Miquelon",
        "name_it": "Saint Pierre e Miquelon",
        "name_en": "St. Pierre & Miquelon",
        "name_pt": "Saint Pierre e Miquelon",
        "continent": "NA",
        "alternates": [
            "Saint Pierre and Miquelon"
        ]
    },
    {
        "name_ru": "Замбия",
        "name_mn": "Замби",
        "name_fr": "Zambie",
        "name_sv": "Zambia",
        "name_sw": "Zambia",
        "name_es": "Zambia",
        "name_ar": "زامبيا",
        "name_pl": "Zambia",
        "name_de": "Sambia",
        "ISO3": "ZMB",
        "ISO": "ZM",
        "name_tr": "Zambiya",
        "capital": "Lusaka",
        "name_fi": "Sambia",
        "name_it": "Zambia",
        "name_en": "Zambia",
        "continent": "AF",
        "name_pt": "Zâmbia"
    },
    {
        "name_ru": "Западная Сахара",
        "name_mn": "Баруун Сахар",
        "name_fr": "Sahara occidental",
        "name_sv": "Västsahara",
        "name_sw": "Sahara Magharibi",
        "name_es": "Sáhara Occidental",
        "name_ar": "الصحراء الغربية",
        "name_pl": "Sahara Zachodnia",
        "name_de": "Westsahara",
        "ISO3": "ESH",
        "ISO": "EH",
        "name_tr": "Batı Sahra",
        "capital": "El-Aaiun",
        "name_fi": "Länsi-Sahara",
        "name_it": "Sahara occidentale",
        "name_en": "Western Sahara",
        "continent": "AF",
        "name_pt": "Saara Ocidental"
    },
    {
        "name_ru": "Россия",
        "name_mn": "Орос",
        "name_fr": "Russie",
        "name_sv": "Ryssland",
        "name_sw": "Urusi",
        "name_es": "Rusia",
        "name_ar": "روسيا",
        "name_pl": "Rosja",
        "name_de": "Russland",
        "ISO3": "RUS",
        "ISO": "RU",
        "name_tr": "Rusya",
        "capital": "Moscow",
        "name_fi": "Venäjä",
        "name_it": "Russia",
        "name_en": "Russia",
        "name_pt": "Rússia",
        "continent": "EU",
        "alternative_spellings": "Rossiya Российская Россия"
    },
    {
        "name_ru": "Эстония",
        "name_mn": "Эстони",
        "name_fr": "Estonie",
        "name_sv": "Estland",
        "name_sw": "Estonia",
        "name_es": "Estonia",
        "name_ar": "إستونيا",
        "name_pl": "Estonia",
        "name_de": "Estland",
        "ISO3": "EST",
        "ISO": "EE",
        "name_tr": "Estonya",
        "capital": "Tallinn",
        "name_fi": "Viro",
        "name_it": "Estonia",
        "name_en": "Estonia",
        "continent": "EU",
        "name_pt": "Estônia"
    },
    {
        "name_ru": "Египет",
        "name_mn": "Египет",
        "name_fr": "Égypte",
        "name_sv": "Egypten",
        "name_sw": "Misri",
        "name_es": "Egipto",
        "name_ar": "مصر",
        "name_pl": "Egipt",
        "name_de": "Ägypten",
        "ISO3": "EGY",
        "ISO": "EG",
        "name_tr": "Mısır",
        "capital": "Cairo",
        "name_fi": "Egypti",
        "name_it": "Egitto",
        "name_en": "Egypt",
        "continent": "AF",
        "name_pt": "Egito"
    },
    {
        "name_ru": "Сеута и Мелилья",
        "name_mn": "Сеута ба Мелилья",
        "name_fr": "Ceuta et Melilla",
        "name_sv": "Ceuta och Melilla",
        "name_sw": "Ceuta na Melilla",
        "name_es": "Ceuta y Melilla",
        "name_ar": "سيوتا وميليلا",
        "name_pl": "Ceuta i Melilla",
        "name_de": "Ceuta und Melilla",
        "ISO": "EA",
        "name_tr": "Septe ve Melilla",
        "name_fi": "Ceuta ja Melilla",
        "name_it": "Ceuta e Melilla",
        "name_en": "Ceuta & Melilla",
        "name_pt": "Ceuta e Melilha"
    },
    {
        "name_ru": "ЮАР",
        "name_mn": "Өмнөд Африк тив",
        "name_fr": "Afrique du Sud",
        "name_sv": "Sydafrika",
        "name_sw": "Afrika Kusini",
        "name_es": "Sudáfrica",
        "name_ar": "جنوب أفريقيا",
        "name_pl": "Republika Południowej Afryki",
        "name_de": "Südafrika",
        "ISO3": "ZAF",
        "ISO": "ZA",
        "name_tr": "Güney Afrika",
        "capital": "Pretoria",
        "name_fi": "Etelä-Afrikka",
        "name_it": "Sudafrica",
        "name_en": "South Africa",
        "continent": "AF",
        "name_pt": "África do Sul"
    },
    {
        "name_ru": "Эквадор",
        "name_mn": "Эквадор",
        "name_fr": "Équateur",
        "name_sv": "Ecuador",
        "name_sw": "Ekwado",
        "name_es": "Ecuador",
        "name_ar": "الإكوادور",
        "name_pl": "Ekwador",
        "name_de": "Ecuador",
        "ISO3": "ECU",
        "ISO": "EC",
        "name_tr": "Ekvador",
        "capital": "Quito",
        "name_fi": "Ecuador",
        "name_it": "Ecuador",
        "name_en": "Ecuador",
        "continent": "SA",
        "name_pt": "Equador"
    },
    {
        "name_ru": "Италия",
        "name_mn": "Итали",
        "name_fr": "Italie",
        "name_sv": "Italien",
        "name_sw": "Italia",
        "name_es": "Italia",
        "name_ar": "إيطاليا",
        "name_pl": "Włochy",
        "name_de": "Italien",
        "ISO3": "ITA",
        "ISO": "IT",
        "name_tr": "İtalya",
        "capital": "Rome",
        "name_fi": "Italia",
        "name_it": "Italia",
        "name_en": "Italy",
        "continent": "EU",
        "name_pt": "Itália"
    },
    {
        "name_ru": "Вьетнам",
        "name_mn": "Вьетнам",
        "name_fr": "Vietnam",
        "name_sv": "Vietnam",
        "name_sw": "Vietnam",
        "name_es": "Vietnam",
        "name_ar": "فيتنام",
        "name_pl": "Wietnam",
        "name_de": "Vietnam",
        "ISO3": "VNM",
        "ISO": "VN",
        "name_tr": "Vietnam",
        "capital": "Hanoi",
        "name_fi": "Vietnam",
        "name_it": "Vietnam",
        "name_en": "Vietnam",
        "name_pt": "Vietnã",
        "continent": "AS",
        "alternative_spellings": "Việt Nam"
    },
    {
        "name_ru": "Эфиопия",
        "name_mn": "Этиоп",
        "name_fr": "Éthiopie",
        "name_sv": "Etiopien",
        "name_sw": "Ethiopia",
        "name_es": "Etiopía",
        "name_ar": "إثيوبيا",
        "name_pl": "Etiopia",
        "name_de": "Äthiopien",
        "ISO3": "ETH",
        "ISO": "ET",
        "name_tr": "Etiyopya",
        "capital": "Addis Ababa",
        "name_fi": "Etiopia",
        "name_it": "Etiopia",
        "name_en": "Ethiopia",
        "continent": "AF",
        "name_pt": "Etiópia"
    },
    {
        "name_ru": "Сомали",
        "name_mn": "Сомали",
        "name_fr": "Somalie",
        "name_sv": "Somalia",
        "name_sw": "Somalia",
        "name_es": "Somalia",
        "name_ar": "الصومال",
        "name_pl": "Somalia",
        "name_de": "Somalia",
        "ISO3": "SOM",
        "ISO": "SO",
        "name_tr": "Somali",
        "capital": "Mogadishu",
        "name_fi": "Somalia",
        "name_it": "Somalia",
        "name_en": "Somalia",
        "continent": "AF",
        "name_pt": "Somália"
    },
    {
        "name_ru": "Зимбабве",
        "name_mn": "Зимбабве",
        "name_fr": "Zimbabwe",
        "name_sv": "Zimbabwe",
        "name_sw": "Zimbabwe",
        "name_es": "Zimbabue",
        "name_ar": "زيمبابوي",
        "name_pl": "Zimbabwe",
        "name_de": "Simbabwe",
        "ISO3": "ZWE",
        "ISO": "ZW",
        "name_tr": "Zimbabve",
        "capital": "Harare",
        "name_fi": "Zimbabwe",
        "name_it": "Zimbabwe",
        "name_en": "Zimbabwe",
        "continent": "AF",
        "name_pt": "Zimbábue"
    },
    {
        "name_ru": "Саудовская Аравия",
        "name_mn": "Саудын Араб",
        "name_fr": "Arabie saoudite",
        "name_sv": "Saudiarabien",
        "name_sw": "Saudia",
        "name_es": "Arabia Saudí",
        "name_ar": "المملكة العربية السعودية",
        "name_pl": "Arabia Saudyjska",
        "name_de": "Saudi-Arabien",
        "ISO3": "SAU",
        "ISO": "SA",
        "name_tr": "Suudi Arabistan",
        "capital": "Riyadh",
        "name_fi": "Saudi-Arabia",
        "name_it": "Arabia Saudita",
        "name_en": "Saudi Arabia",
        "continent": "AS",
        "name_pt": "Arábia Saudita"
    },
    {
        "name_ru": "Испания",
        "name_mn": "Испани",
        "name_fr": "Espagne",
        "name_sv": "Spanien",
        "name_sw": "Hispania",
        "name_es": "España",
        "name_ar": "إسبانيا",
        "name_pl": "Hiszpania",
        "name_de": "Spanien",
        "ISO3": "ESP",
        "ISO": "ES",
        "name_tr": "İspanya",
        "capital": "Madrid",
        "name_fi": "Espanja",
        "name_it": "Spagna",
        "name_en": "Spain",
        "continent": "EU",
        "name_pt": "Espanha"
    },
    {
        "name_ru": "Эритрея",
        "name_mn": "Эритри",
        "name_fr": "Érythrée",
        "name_sv": "Eritrea",
        "name_sw": "Eritrea",
        "name_es": "Eritrea",
        "name_ar": "إريتريا",
        "name_pl": "Erytrea",
        "name_de": "Eritrea",
        "ISO3": "ERI",
        "ISO": "ER",
        "name_tr": "Eritre",
        "capital": "Asmara",
        "name_fi": "Eritrea",
        "name_it": "Eritrea",
        "name_en": "Eritrea",
        "continent": "AF",
        "name_pt": "Eritreia"
    },
    {
        "name_ru": "Черногория",
        "name_mn": "Монтенегро",
        "name_fr": "Monténégro",
        "name_sv": "Montenegro",
        "name_sw": "Montenegro",
        "name_es": "Montenegro",
        "name_ar": "الجبل الأسود",
        "name_pl": "Czarnogóra",
        "name_de": "Montenegro",
        "ISO3": "MNE",
        "ISO": "ME",
        "name_tr": "Karadağ",
        "capital": "Podgorica",
        "name_fi": "Montenegro",
        "name_it": "Montenegro",
        "name_en": "Montenegro",
        "continent": "EU",
        "name_pt": "Montenegro"
    },
    {
        "name_ru": "Антарктида",
        "name_mn": "Антарктик",
        "name_fr": "Antarctique",
        "name_sv": "Antarktis",
        "name_sw": "Antaktika",
        "name_es": "Antártida",
        "name_ar": "أنتاركتيكا",
        "name_pl": "Antarktyka",
        "name_de": "Antarktis",
        "ISO3": "ATA",
        "ISO": "AQ",
        "name_tr": "Antarktika",
        "capital": "",
        "name_fi": "Antarktis",
        "name_it": "Antartide",
        "name_en": "Antarctica",
        "continent": "AN",
        "name_pt": "Antártida"
    },
    {
        "name_ru": "Мадагаскар",
        "name_mn": "Мадагаскар",
        "name_fr": "Madagascar",
        "name_sv": "Madagaskar",
        "name_sw": "Madagaska",
        "name_es": "Madagascar",
        "name_ar": "مدغشقر",
        "name_pl": "Madagaskar",
        "name_de": "Madagaskar",
        "ISO3": "MDG",
        "ISO": "MG",
        "name_tr": "Madagaskar",
        "capital": "Antananarivo",
        "name_fi": "Madagaskar",
        "name_it": "Madagascar",
        "name_en": "Madagascar",
        "continent": "AF",
        "name_pt": "Madagascar"
    },
    {
        "name_ru": "Сен-Мартен",
        "name_mn": "Сент-Мартин",
        "name_fr": "Saint-Martin",
        "name_sv": "Saint-Martin",
        "name_sw": "Saint Martin",
        "name_es": "San Martín",
        "name_ar": "سانت مارتن",
        "name_pl": "Saint-Martin",
        "name_de": "St. Martin",
        "ISO3": "MAF",
        "ISO": "MF",
        "name_tr": "Saint Martin",
        "capital": "Marigot",
        "name_fi": "Saint-Martin",
        "name_it": "Saint Martin",
        "name_en": "St. Martin",
        "name_pt": "São Martinho",
        "continent": "NA",
        "alternates": [
            "Saint Martin"
        ]
    },
    {
        "name_ru": "Марокко",
        "name_mn": "Марокко",
        "name_fr": "Maroc",
        "name_sv": "Marocko",
        "name_sw": "Morocco",
        "name_es": "Marruecos",
        "name_ar": "المغرب",
        "name_pl": "Maroko",
        "name_de": "Marokko",
        "ISO3": "MAR",
        "ISO": "MA",
        "name_tr": "Fas",
        "capital": "Rabat",
        "name_fi": "Marokko",
        "name_it": "Marocco",
        "name_en": "Morocco",
        "continent": "AF",
        "name_pt": "Marrocos"
    },
    {
        "name_ru": "Монако",
        "name_mn": "Монако",
        "name_fr": "Monaco",
        "name_sv": "Monaco",
        "name_sw": "Monako",
        "name_es": "Mónaco",
        "name_ar": "موناكو",
        "name_pl": "Monako",
        "name_de": "Monaco",
        "ISO3": "MCO",
        "ISO": "MC",
        "name_tr": "Monako",
        "capital": "Monaco",
        "name_fi": "Monaco",
        "name_it": "Monaco",
        "name_en": "Monaco",
        "continent": "EU",
        "name_pt": "Mônaco"
    },
    {
        "name_ru": "Узбекистан",
        "name_mn": "Узбекистан",
        "name_fr": "Ouzbékistan",
        "name_sv": "Uzbekistan",
        "name_sw": "Uzibekistani",
        "name_es": "Uzbekistán",
        "name_ar": "أوزبكستان",
        "name_pl": "Uzbekistan",
        "name_de": "Usbekistan",
        "ISO3": "UZB",
        "ISO": "UZ",
        "name_tr": "Özbekistan",
        "capital": "Tashkent",
        "name_fi": "Uzbekistan",
        "name_it": "Uzbekistan",
        "name_en": "Uzbekistan",
        "continent": "AS",
        "name_pt": "Uzbequistão"
    },
    {
        "name_ru": "Мьянма (Бирма)",
        "name_mn": "Мьянмар (Бурма)",
        "name_fr": "Myanmar (Birmanie)",
        "name_sv": "Myanmar (Burma)",
        "name_sw": "Myanmar (Burma)",
        "name_es": "Myanmar (Birmania)",
        "name_ar": "ميانمار (بورما)",
        "name_pl": "Mjanma (Birma)",
        "name_de": "Myanmar",
        "ISO3": "MMR",
        "ISO": "MM",
        "name_tr": "Myanmar (Burma)",
        "capital": "Nay Pyi Taw",
        "name_fi": "Myanmar (Burma)",
        "name_it": "Myanmar (Birmania)",
        "name_en": "Myanmar (Burma)",
        "name_pt": "Mianmar (Birmânia)",
        "continent": "AS",
        "alternates": [
            "Myanmar"
        ]
    },
    {
        "name_ru": "Мали",
        "name_mn": "Мали",
        "name_fr": "Mali",
        "name_sv": "Mali",
        "name_sw": "Mali",
        "name_es": "Mali",
        "name_ar": "مالي",
        "name_pl": "Mali",
        "name_de": "Mali",
        "ISO3": "MLI",
        "ISO": "ML",
        "name_tr": "Mali",
        "capital": "Bamako",
        "name_fi": "Mali",
        "name_it": "Mali",
        "name_en": "Mali",
        "continent": "AF",
        "name_pt": "Mali"
    },
    {
        "name_ru": "Макао (специальный административный район)",
        "name_mn": "БНХАУ-ын Тусгай захиргааны бүс Макао",
        "name_fr": "R.A.S. chinoise de Macao",
        "name_sv": "Macao, S.A.R. Kina",
        "name_sw": "Macau SAR China",
        "name_es": "RAE de Macao (China)",
        "name_ar": "مكاو الصينية (منطقة إدارية خاصة)",
        "name_pl": "SRA Makau (Chiny)",
        "name_de": "Sonderverwaltungsregion Macau",
        "ISO3": "MAC",
        "ISO": "MO",
        "name_tr": "Çin Makao ÖİB",
        "capital": "Macao",
        "name_fi": "Macao – Kiinan e.h.a.",
        "name_it": "RAS di Macao",
        "name_en": "Macau SAR China",
        "alternates": [
            "Макао",
            "Macao",
            "Макао",
            "Macao",
            "Macau",
            "Macau",
            "Macau",
            "Macao",
            "Macao",
            "Macao",
            "مكاو",
            "Makau",
            "Makao"
        ],
        "continent": "AS",
        "name_pt": "Macau, RAE da China"
    },
    {
        "name_ru": "Монголия",
        "name_mn": "Монгол",
        "name_fr": "Mongolie",
        "name_sv": "Mongoliet",
        "name_sw": "Mongolia",
        "name_es": "Mongolia",
        "name_ar": "منغوليا",
        "name_pl": "Mongolia",
        "name_de": "Mongolei",
        "ISO3": "MNG",
        "ISO": "MN",
        "name_tr": "Moğolistan",
        "capital": "Ulan Bator",
        "name_fi": "Mongolia",
        "name_it": "Mongolia",
        "name_en": "Mongolia",
        "continent": "AS",
        "name_pt": "Mongólia"
    },
    {
        "name_ru": "о-ва Херд и Макдональд",
        "name_mn": "Хэрд болон Макдоналд арлууд",
        "name_fr": "Îles Heard et McDonald",
        "name_sv": "Heardön och McDonaldöarna",
        "name_sw": "Kisiwa cha Heard na Visiwa vya McDonald",
        "name_es": "Islas Heard y McDonald",
        "name_ar": "جزيرة هيرد وجزر ماكدونالد",
        "name_pl": "Wyspy Heard i McDonalda",
        "name_de": "Heard und McDonaldinseln",
        "ISO3": "HMD",
        "ISO": "HM",
        "name_tr": "Heard Adası ve McDonald Adaları",
        "capital": "",
        "name_fi": "Heard ja McDonaldinsaaret",
        "name_it": "Isole Heard e McDonald",
        "name_en": "Heard & McDonald Islands",
        "name_pt": "Ilhas Heard e McDonald",
        "continent": "AN",
        "alternates": [
            "Heard Island and McDonald Islands"
        ]
    },
    {
        "name_ru": "Американское Самоа",
        "name_mn": "Америкийн Самоа",
        "name_fr": "Samoa américaines",
        "name_sv": "Amerikanska Samoa",
        "name_sw": "Samoa ya Marekani",
        "name_es": "Samoa Americana",
        "name_ar": "ساموا الأمريكية",
        "name_pl": "Samoa Amerykańskie",
        "name_de": "Amerikanisch-Samoa",
        "ISO3": "ASM",
        "ISO": "AS",
        "name_tr": "Amerikan Samoası",
        "capital": "Pago Pago",
        "name_fi": "Amerikan Samoa",
        "name_it": "Samoa americane",
        "name_en": "American Samoa",
        "continent": "OC",
        "name_pt": "Samoa Americana"
    },
    {
        "name_ru": "Македония",
        "name_mn": "Македон",
        "name_fr": "Macédoine",
        "name_sv": "Makedonien",
        "name_sw": "Macedonia",
        "name_es": "Macedonia",
        "name_ar": "مقدونيا",
        "name_pl": "Macedonia",
        "name_de": "Mazedonien",
        "ISO3": "MKD",
        "ISO": "MK",
        "name_tr": "Makedonya",
        "capital": "Skopje",
        "name_fi": "Makedonia",
        "name_it": "Repubblica di Macedonia",
        "name_en": "Macedonia",
        "alternates": [
            "Македон (Хуучин Югославын бүрэлдэхүүний Македон)",
            "EJT Makedonia",
            "Македония (БЮРМ)",
            "f.d. jugoslaviska republiken Makedonien",
            "Macedônia (ARIM)",
            "Masedonia (FYROM)",
            "Macedonia (FYROM)",
            "Ex Repubblica Jugoslava di Macedonia",
            "Macédoine (ARYM)",
            "Macedonia (ERYM)",
            "مقدونيا- جمهورية مقدونيا اليوغسلافية السابقة",
            "Była Jugosłowiańska Republika Macedonii",
            "MK"
        ],
        "continent": "EU",
        "name_pt": "Macedônia"
    },
    {
        "name_ru": "Маврикий",
        "name_mn": "Мавритус",
        "name_fr": "Maurice",
        "name_sv": "Mauritius",
        "name_sw": "Morisi",
        "name_es": "Mauricio",
        "name_ar": "موريشيوس",
        "name_pl": "Mauritius",
        "name_de": "Mauritius",
        "ISO3": "MUS",
        "ISO": "MU",
        "name_tr": "Mauritius",
        "capital": "Port Louis",
        "name_fi": "Mauritius",
        "name_it": "Mauritius",
        "name_en": "Mauritius",
        "continent": "AF",
        "name_pt": "Maurício"
    },
    {
        "name_ru": "Мальта",
        "name_mn": "Мальта",
        "name_fr": "Malte",
        "name_sv": "Malta",
        "name_sw": "Malta",
        "name_es": "Malta",
        "name_ar": "مالطا",
        "name_pl": "Malta",
        "name_de": "Malta",
        "ISO3": "MLT",
        "ISO": "MT",
        "name_tr": "Malta",
        "capital": "Valletta",
        "name_fi": "Malta",
        "name_it": "Malta",
        "name_en": "Malta",
        "continent": "EU",
        "name_pt": "Malta"
    },
    {
        "name_ru": "Малави",
        "name_mn": "Малави",
        "name_fr": "Malawi",
        "name_sv": "Malawi",
        "name_sw": "Malawi",
        "name_es": "Malaui",
        "name_ar": "ملاوي",
        "name_pl": "Malawi",
        "name_de": "Malawi",
        "ISO3": "MWI",
        "ISO": "MW",
        "name_tr": "Malavi",
        "capital": "Lilongwe",
        "name_fi": "Malawi",
        "name_it": "Malawi",
        "name_en": "Malawi",
        "continent": "AF",
        "name_pt": "Malawi"
    },
    {
        "name_ru": "Мальдивы",
        "name_mn": "Мальдив",
        "name_fr": "Maldives",
        "name_sv": "Maldiverna",
        "name_sw": "Maldives",
        "name_es": "Maldivas",
        "name_ar": "جزر المالديف",
        "name_pl": "Malediwy",
        "name_de": "Malediven",
        "ISO3": "MDV",
        "ISO": "MV",
        "name_tr": "Maldivler",
        "capital": "Male",
        "name_fi": "Malediivit",
        "name_it": "Maldive",
        "name_en": "Maldives",
        "continent": "AS",
        "name_pt": "Maldivas"
    },
    {
        "name_ru": "Мартиника",
        "name_mn": "Мартиник",
        "name_fr": "Martinique",
        "name_sv": "Martinique",
        "name_sw": "Martiniki",
        "name_es": "Martinica",
        "name_ar": "جزر المارتينيك",
        "name_pl": "Martynika",
        "name_de": "Martinique",
        "ISO3": "MTQ",
        "ISO": "MQ",
        "name_tr": "Martinik",
        "capital": "Fort-de-France",
        "name_fi": "Martinique",
        "name_it": "Martinica",
        "name_en": "Martinique",
        "continent": "NA",
        "name_pt": "Martinica"
    },
    {
        "name_ru": "Северные Марианские о-ва",
        "name_mn": "Хойд Марианы арлууд",
        "name_fr": "Îles Mariannes du Nord",
        "name_sv": "Nordmarianerna",
        "name_sw": "Visiwa vya Mariana vya Kaskazini",
        "name_es": "Islas Marianas del Norte",
        "name_ar": "جزر ماريانا الشمالية",
        "name_pl": "Mariany Północne",
        "name_de": "Nördliche Marianen",
        "ISO3": "MNP",
        "ISO": "MP",
        "name_tr": "Kuzey Mariana Adaları",
        "capital": "Saipan",
        "name_fi": "Pohjois-Mariaanit",
        "name_it": "Isole Marianne settentrionali",
        "name_en": "Northern Mariana Islands",
        "continent": "OC",
        "name_pt": "Ilhas Marianas do Norte"
    },
    {
        "name_ru": "Монтсеррат",
        "name_mn": "Монтсеррат",
        "name_fr": "Montserrat",
        "name_sv": "Montserrat",
        "name_sw": "Montserrati",
        "name_es": "Montserrat",
        "name_ar": "مونتسرات",
        "name_pl": "Montserrat",
        "name_de": "Montserrat",
        "ISO3": "MSR",
        "ISO": "MS",
        "name_tr": "Montserrat",
        "capital": "Plymouth",
        "name_fi": "Montserrat",
        "name_it": "Montserrat",
        "name_en": "Montserrat",
        "continent": "NA",
        "name_pt": "Montserrat"
    },
    {
        "name_ru": "Мавритания",
        "name_mn": "Мавритани",
        "name_fr": "Mauritanie",
        "name_sv": "Mauretanien",
        "name_sw": "Moritania",
        "name_es": "Mauritania",
        "name_ar": "موريتانيا",
        "name_pl": "Mauretania",
        "name_de": "Mauretanien",
        "ISO3": "MRT",
        "ISO": "MR",
        "name_tr": "Moritanya",
        "capital": "Nouakchott",
        "name_fi": "Mauritania",
        "name_it": "Mauritania",
        "name_en": "Mauritania",
        "continent": "AF",
        "name_pt": "Mauritânia"
    },
    {
        "name_ru": "о-в Мэн",
        "name_mn": "Мэн Арал",
        "name_fr": "Île de Man",
        "name_sv": "Isle of Man",
        "name_sw": "Isle of Man",
        "name_es": "Isla de Man",
        "name_ar": "جزيرة مان",
        "name_pl": "Wyspa Man",
        "name_de": "Isle of Man",
        "ISO3": "IMN",
        "ISO": "IM",
        "name_tr": "Man Adası",
        "capital": "Douglas",
        "name_fi": "Mansaari",
        "name_it": "Isola di Man",
        "name_en": "Isle of Man",
        "continent": "EU",
        "name_pt": "Ilha de Man"
    },
    {
        "name_ru": "Уганда",
        "name_mn": "Уганда",
        "name_fr": "Ouganda",
        "name_sv": "Uganda",
        "name_sw": "Uganda",
        "name_es": "Uganda",
        "name_ar": "أوغندا",
        "name_pl": "Uganda",
        "name_de": "Uganda",
        "ISO3": "UGA",
        "ISO": "UG",
        "name_tr": "Uganda",
        "capital": "Kampala",
        "name_fi": "Uganda",
        "name_it": "Uganda",
        "name_en": "Uganda",
        "continent": "AF",
        "name_pt": "Uganda"
    },
    {
        "name_ru": "Танзания",
        "name_mn": "Танзани",
        "name_fr": "Tanzanie",
        "name_sv": "Tanzania",
        "name_sw": "Tanzania",
        "name_es": "Tanzania",
        "name_ar": "تنزانيا",
        "name_pl": "Tanzania",
        "name_de": "Tansania",
        "ISO3": "TZA",
        "ISO": "TZ",
        "name_tr": "Tanzanya",
        "capital": "Dodoma",
        "name_fi": "Tansania",
        "name_it": "Tanzania",
        "name_en": "Tanzania",
        "continent": "AF",
        "name_pt": "Tanzânia"
    },
    {
        "name_ru": "Малайзия",
        "name_mn": "Малайз",
        "name_fr": "Malaisie",
        "name_sv": "Malaysia",
        "name_sw": "Malesia",
        "name_es": "Malasia",
        "name_ar": "ماليزيا",
        "name_pl": "Malezja",
        "name_de": "Malaysia",
        "ISO3": "MYS",
        "ISO": "MY",
        "name_tr": "Malezya",
        "capital": "Kuala Lumpur",
        "name_fi": "Malesia",
        "name_it": "Malaysia",
        "name_en": "Malaysia",
        "continent": "AS",
        "name_pt": "Malásia"
    },
    {
        "name_ru": "Мексика",
        "name_mn": "Мексик",
        "name_fr": "Mexique",
        "name_sv": "Mexiko",
        "name_sw": "Meksiko",
        "name_es": "México",
        "name_ar": "المكسيك",
        "name_pl": "Meksyk",
        "name_de": "Mexiko",
        "ISO3": "MEX",
        "ISO": "MX",
        "name_tr": "Meksika",
        "capital": "Mexico City",
        "name_fi": "Meksiko",
        "name_it": "Messico",
        "name_en": "Mexico",
        "name_pt": "México",
        "continent": "NA",
        "alternative_spellings": "Mexicanos"
    },
    {
        "name_ru": "Израиль",
        "name_mn": "Израиль",
        "name_fr": "Israël",
        "name_sv": "Israel",
        "name_sw": "Israeli",
        "name_es": "Israel",
        "name_ar": "إسرائيل",
        "name_pl": "Izrael",
        "name_de": "Israel",
        "ISO3": "ISR",
        "ISO": "IL",
        "name_tr": "İsrail",
        "capital": "Jerusalem",
        "name_fi": "Israel",
        "name_it": "Israele",
        "name_en": "Israel",
        "continent": "AS",
        "name_pt": "Israel"
    },
    {
        "name_ru": "Канарские о-ва",
        "name_mn": "Канарын арлууд",
        "name_fr": "Îles Canaries",
        "name_sv": "Kanarieöarna",
        "name_sw": "Visiwa vya Kanari",
        "name_es": "Canarias",
        "name_ar": "جزر الكناري",
        "name_pl": "Wyspy Kanaryjskie",
        "name_de": "Kanarische Inseln",
        "ISO": "IC",
        "name_tr": "Kanarya Adaları",
        "name_fi": "Kanariansaaret",
        "name_it": "Isole Canarie",
        "name_en": "Canary Islands",
        "name_pt": "Ilhas Canárias"
    },
    {
        "name_ru": "Франция",
        "name_mn": "Франц",
        "name_fr": "France",
        "name_sv": "Frankrike",
        "name_sw": "Ufaransa",
        "name_es": "Francia",
        "name_ar": "فرنسا",
        "name_pl": "Francja",
        "name_de": "Frankreich",
        "ISO3": "FRA",
        "ISO": "FR",
        "name_tr": "Fransa",
        "capital": "Paris",
        "name_fi": "Ranska",
        "name_it": "Francia",
        "name_en": "France",
        "name_pt": "França",
        "continent": "EU",
        "alternative_spellings": "République Française"
    },
    {
        "name_ru": "Аруба",
        "name_mn": "Аруба",
        "name_fr": "Aruba",
        "name_sv": "Aruba",
        "name_sw": "Aruba",
        "name_es": "Aruba",
        "name_ar": "أروبا",
        "name_pl": "Aruba",
        "name_de": "Aruba",
        "ISO3": "ABW",
        "ISO": "AW",
        "name_tr": "Aruba",
        "capital": "Oranjestad",
        "name_fi": "Aruba",
        "name_it": "Aruba",
        "name_en": "Aruba",
        "continent": "NA",
        "name_pt": "Aruba"
    },
    {
        "name_ru": "Доминиканская Республика",
        "name_mn": "Бүгд Найрамдах Доминикан Улс",
        "name_fr": "République dominicaine",
        "name_sv": "Dominikanska republiken",
        "name_sw": "Jamhuri ya Dominika",
        "name_es": "República Dominicana",
        "name_ar": "جمهورية الدومينيكان",
        "name_pl": "Dominikana",
        "name_de": "Dominikanische Republik",
        "ISO3": "DOM",
        "ISO": "DO",
        "name_tr": "Dominik Cumhuriyeti",
        "capital": "Santo Domingo",
        "name_fi": "Dominikaaninen tasavalta",
        "name_it": "Repubblica Dominicana",
        "name_en": "Dominican Republic",
        "continent": "NA",
        "name_pt": "República Dominicana"
    },
    {
        "name_ru": "о-в Св. Елены",
        "name_mn": "Сент Хелена",
        "name_fr": "Sainte-Hélène",
        "name_sv": "S:t Helena",
        "name_sw": "Santahelena",
        "name_es": "Santa Elena",
        "name_ar": "سانت هيلانة",
        "name_pl": "Wyspa Świętej Heleny",
        "name_de": "St. Helena",
        "ISO3": "SHN",
        "ISO": "SH",
        "name_tr": "Saint Helena",
        "capital": "Jamestown",
        "name_fi": "Saint Helena",
        "name_it": "Sant’Elena",
        "name_en": "St. Helena",
        "name_pt": "Santa Helena",
        "continent": "AF",
        "alternates": [
            "Saint Helena"
        ]
    },
    {
        "name_ru": "Сент-Винсент и Гренадины",
        "name_mn": "Сэнт Винсэнт ба Гренадин",
        "name_fr": "Saint-Vincent-et-les-Grenadines",
        "name_sv": "S:t Vincent och Grenadinerna",
        "name_sw": "Santavisenti na Grenadini",
        "name_es": "San Vicente y las Granadinas",
        "name_ar": "سانت فنسنت وجزر غرينادين",
        "name_pl": "Saint Vincent i Grenadyny",
        "name_de": "St. Vincent und die Grenadinen",
        "ISO3": "VCT",
        "ISO": "VC",
        "name_tr": "Saint Vincent ve Grenadinler",
        "capital": "Kingstown",
        "name_fi": "Saint Vincent ja Grenadiinit",
        "name_it": "Saint Vincent e Grenadines",
        "name_en": "St. Vincent & Grenadines",
        "name_pt": "São Vicente e Granadinas",
        "continent": "NA",
        "alternates": [
            "Saint Vincent and the Grenadines"
        ]
    },
    {
        "name_ru": "Джибути",
        "name_mn": "Джибути",
        "name_fr": "Djibouti",
        "name_sv": "Djibouti",
        "name_sw": "Jibuti",
        "name_es": "Yibuti",
        "name_ar": "جيبوتي",
        "name_pl": "Dżibuti",
        "name_de": "Dschibuti",
        "ISO3": "DJI",
        "ISO": "DJ",
        "name_tr": "Cibuti",
        "capital": "Djibouti",
        "name_fi": "Djibouti",
        "name_it": "Gibuti",
        "name_en": "Djibouti",
        "continent": "AF",
        "name_pt": "Djibuti"
    },
    {
        "name_ru": "Фиджи",
        "name_mn": "Фижи",
        "name_fr": "Fidji",
        "name_sv": "Fiji",
        "name_sw": "Fiji",
        "name_es": "Fiyi",
        "name_ar": "فيجي",
        "name_pl": "Fidżi",
        "name_de": "Fidschi",
        "ISO3": "FJI",
        "ISO": "FJ",
        "name_tr": "Fiji",
        "capital": "Suva",
        "name_fi": "Fidži",
        "name_it": "Figi",
        "name_en": "Fiji",
        "continent": "OC",
        "name_pt": "Fiji"
    },
    {
        "name_ru": "Федеративные Штаты Микронезии",
        "name_mn": "Микронези",
        "name_fr": "États fédérés de Micronésie",
        "name_sv": "Mikronesien",
        "name_sw": "Mikronesia",
        "name_es": "Micronesia",
        "name_ar": "ميكرونيزيا",
        "name_pl": "Mikronezja",
        "name_de": "Mikronesien",
        "ISO3": "FSM",
        "ISO": "FM",
        "name_tr": "Mikronezya",
        "capital": "Palikir",
        "name_fi": "Mikronesian liittovaltio",
        "name_it": "Micronesia",
        "name_en": "Micronesia",
        "continent": "OC",
        "name_pt": "Micronésia"
    },
    {
        "name_ru": "Никарагуа",
        "name_mn": "Никарагуа",
        "name_fr": "Nicaragua",
        "name_sv": "Nicaragua",
        "name_sw": "Nikaragwa",
        "name_es": "Nicaragua",
        "name_ar": "نيكاراغوا",
        "name_pl": "Nikaragua",
        "name_de": "Nicaragua",
        "ISO3": "NIC",
        "ISO": "NI",
        "name_tr": "Nikaragua",
        "capital": "Managua",
        "name_fi": "Nicaragua",
        "name_it": "Nicaragua",
        "name_en": "Nicaragua",
        "continent": "NA",
        "name_pt": "Nicarágua"
    },
    {
        "name_ru": "Нидерланды",
        "name_mn": "Нидерланд",
        "name_fr": "Pays-Bas",
        "name_sv": "Nederländerna",
        "name_sw": "Uholanzi",
        "name_es": "Países Bajos",
        "name_ar": "هولندا",
        "name_pl": "Holandia",
        "name_de": "Niederlande",
        "ISO3": "NLD",
        "ISO": "NL",
        "name_tr": "Hollanda",
        "capital": "Amsterdam",
        "name_fi": "Alankomaat",
        "name_it": "Paesi Bassi",
        "name_en": "Netherlands",
        "name_pt": "Holanda",
        "continent": "EU",
        "alternative_spellings": "Holland Nederland"
    },
    {
        "name_ru": "Норвегия",
        "name_mn": "Норвеги",
        "name_fr": "Norvège",
        "name_sv": "Norge",
        "name_sw": "Norway",
        "name_es": "Noruega",
        "name_ar": "النرويج",
        "name_pl": "Norwegia",
        "name_de": "Norwegen",
        "ISO3": "NOR",
        "ISO": "NO",
        "name_tr": "Norveç",
        "capital": "Oslo",
        "name_fi": "Norja",
        "name_it": "Norvegia",
        "name_en": "Norway",
        "name_pt": "Noruega",
        "continent": "EU",
        "alternative_spellings": "Norge Noreg"
    },
    {
        "name_ru": "Намибия",
        "name_mn": "Намиби",
        "name_fr": "Namibie",
        "name_sv": "Namibia",
        "name_sw": "Namibia",
        "name_es": "Namibia",
        "name_ar": "ناميبيا",
        "name_pl": "Namibia",
        "name_de": "Namibia",
        "ISO3": "NAM",
        "ISO": "NA",
        "name_tr": "Namibya",
        "capital": "Windhoek",
        "name_fi": "Namibia",
        "name_it": "Namibia",
        "name_en": "Namibia",
        "continent": "AF",
        "name_pt": "Namíbia"
    },
    {
        "name_ru": "Вануату",
        "name_mn": "Вануату",
        "name_fr": "Vanuatu",
        "name_sv": "Vanuatu",
        "name_sw": "Vanuatu",
        "name_es": "Vanuatu",
        "name_ar": "فانواتو",
        "name_pl": "Vanuatu",
        "name_de": "Vanuatu",
        "ISO3": "VUT",
        "ISO": "VU",
        "name_tr": "Vanuatu",
        "capital": "Port Vila",
        "name_fi": "Vanuatu",
        "name_it": "Vanuatu",
        "name_en": "Vanuatu",
        "continent": "OC",
        "name_pt": "Vanuatu"
    },
    {
        "name_ru": "Новая Каледония",
        "name_mn": "Шинэ Каледони",
        "name_fr": "Nouvelle-Calédonie",
        "name_sv": "Nya Kaledonien",
        "name_sw": "Nyukaledonia",
        "name_es": "Nueva Caledonia",
        "name_ar": "كاليدونيا الجديدة",
        "name_pl": "Nowa Kaledonia",
        "name_de": "Neukaledonien",
        "ISO3": "NCL",
        "ISO": "NC",
        "name_tr": "Yeni Kaledonya",
        "capital": "Noumea",
        "name_fi": "Uusi-Kaledonia",
        "name_it": "Nuova Caledonia",
        "name_en": "New Caledonia",
        "continent": "OC",
        "name_pt": "Nova Caledônia"
    },
    {
        "name_ru": "Нигер",
        "name_mn": "Нигер",
        "name_fr": "Niger",
        "name_sv": "Niger",
        "name_sw": "Niger",
        "name_es": "Níger",
        "name_ar": "النيجر",
        "name_pl": "Niger",
        "name_de": "Niger",
        "ISO3": "NER",
        "ISO": "NE",
        "name_tr": "Nijer",
        "capital": "Niamey",
        "name_fi": "Niger",
        "name_it": "Niger",
        "name_en": "Niger",
        "continent": "AF",
        "name_pt": "Níger"
    },
    {
        "name_ru": "о-в Норфолк",
        "name_mn": "Норфолк арлууд",
        "name_fr": "Île Norfolk",
        "name_sv": "Norfolkön",
        "name_sw": "Kisiwa cha Norfolk",
        "name_es": "Isla Norfolk",
        "name_ar": "جزيرة نورفولك",
        "name_pl": "Norfolk",
        "name_de": "Norfolkinsel",
        "ISO3": "NFK",
        "ISO": "NF",
        "name_tr": "Norfolk Adası",
        "capital": "Kingston",
        "name_fi": "Norfolkinsaari",
        "name_it": "Isola Norfolk",
        "name_en": "Norfolk Island",
        "continent": "OC",
        "name_pt": "Ilha Norfolk"
    },
    {
        "name_ru": "Нигерия",
        "name_mn": "Нигери",
        "name_fr": "Nigéria",
        "name_sv": "Nigeria",
        "name_sw": "Nigeria",
        "name_es": "Nigeria",
        "name_ar": "نيجيريا",
        "name_pl": "Nigeria",
        "name_de": "Nigeria",
        "ISO3": "NGA",
        "ISO": "NG",
        "name_tr": "Nijerya",
        "capital": "Abuja",
        "name_fi": "Nigeria",
        "name_it": "Nigeria",
        "name_en": "Nigeria",
        "name_pt": "Nigéria",
        "continent": "AF",
        "alternative_spellings": "Nijeriya Naíjíríà"
    },
    {
        "name_ru": "Новая Зеландия",
        "name_mn": "Шинэ Зеланд",
        "name_fr": "Nouvelle-Zélande",
        "name_sv": "Nya Zeeland",
        "name_sw": "Nyuzilandi",
        "name_es": "Nueva Zelanda",
        "name_ar": "نيوزيلندا",
        "name_pl": "Nowa Zelandia",
        "name_de": "Neuseeland",
        "ISO3": "NZL",
        "ISO": "NZ",
        "name_tr": "Yeni Zelanda",
        "capital": "Wellington",
        "name_fi": "Uusi-Seelanti",
        "name_it": "Nuova Zelanda",
        "name_en": "New Zealand",
        "continent": "OC",
        "name_pt": "Nova Zelândia"
    },
    {
        "name_ru": "Непал",
        "name_mn": "Балба",
        "name_fr": "Népal",
        "name_sv": "Nepal",
        "name_sw": "Nepal",
        "name_es": "Nepal",
        "name_ar": "نيبال",
        "name_pl": "Nepal",
        "name_de": "Nepal",
        "ISO3": "NPL",
        "ISO": "NP",
        "name_tr": "Nepal",
        "capital": "Kathmandu",
        "name_fi": "Nepal",
        "name_it": "Nepal",
        "name_en": "Nepal",
        "continent": "AS",
        "name_pt": "Nepal"
    },
    {
        "name_ru": "Науру",
        "name_mn": "Науру",
        "name_fr": "Nauru",
        "name_sv": "Nauru",
        "name_sw": "Nauru",
        "name_es": "Nauru",
        "name_ar": "ناورو",
        "name_pl": "Nauru",
        "name_de": "Nauru",
        "ISO3": "NRU",
        "ISO": "NR",
        "name_tr": "Nauru",
        "capital": "Yaren",
        "name_fi": "Nauru",
        "name_it": "Nauru",
        "name_en": "Nauru",
        "name_pt": "Nauru",
        "continent": "OC",
        "alternative_spellings": "Naoero"
    },
    {
        "name_ru": "Ниуэ",
        "name_mn": "Ниуэ",
        "name_fr": "Niue",
        "name_sv": "Niue",
        "name_sw": "Niue",
        "name_es": "Niue",
        "name_ar": "نيوي",
        "name_pl": "Niue",
        "name_de": "Niue",
        "ISO3": "NIU",
        "ISO": "NU",
        "name_tr": "Niue",
        "capital": "Alofi",
        "name_fi": "Niue",
        "name_it": "Niue",
        "name_en": "Niue",
        "continent": "OC",
        "name_pt": "Niue"
    },
    {
        "name_ru": "Косово",
        "name_mn": "Косово",
        "name_fr": "Kosovo",
        "name_sv": "Kosovo",
        "name_sw": "Kosovo",
        "name_es": "Kosovo",
        "name_ar": "كوسوفو",
        "name_pl": "Kosowo",
        "name_de": "Kosovo",
        "ISO3": "XKX",
        "ISO": "XK",
        "name_tr": "Kosova",
        "capital": "Pristina",
        "name_fi": "Kosovo",
        "name_it": "Kosovo",
        "name_en": "Kosovo",
        "continent": "EU",
        "name_pt": "Kosovo"
    },
    {
        "name_ru": "Кот-д’Ивуар",
        "name_mn": "Кот д’Ивуар",
        "name_fr": "Côte d’Ivoire",
        "name_sv": "Elfenbenskusten",
        "name_sw": "Côte d’Ivoire",
        "name_es": "Côte d’Ivoire",
        "name_ar": "ساحل العاج",
        "name_pl": "Côte d’Ivoire",
        "name_de": "Côte d’Ivoire",
        "ISO3": "CIV",
        "ISO": "CI",
        "name_tr": "Fildişi Sahili",
        "capital": "Yamoussoukro",
        "name_fi": "Norsunluurannikko",
        "name_it": "Costa d’Avorio",
        "name_en": "Côte d’Ivoire",
        "alternates": [
            "Зааны ясан эрэг",
            "Côte d’Ivoire",
            "Берег Слоновой Кости",
            "CI",
            "CI",
            "Ivory Coast",
            "Ivory Coast",
            "Côte d’Ivoire",
            "CI",
            "Costa de Marfil",
            "CI",
            "Wybrzeże Kości Słoniowej",
            "CI"
        ],
        "continent": "AF",
        "name_pt": "Costa do Marfim"
    },
    {
        "name_ru": "Швейцария",
        "name_mn": "Швейцари",
        "name_fr": "Suisse",
        "name_sv": "Schweiz",
        "name_sw": "Uswisi",
        "name_es": "Suiza",
        "name_ar": "سويسرا",
        "name_pl": "Szwajcaria",
        "name_de": "Schweiz",
        "ISO3": "CHE",
        "ISO": "CH",
        "name_tr": "İsviçre",
        "capital": "Bern",
        "name_fi": "Sveitsi",
        "name_it": "Svizzera",
        "name_en": "Switzerland",
        "name_pt": "Suíça",
        "continent": "EU",
        "alternative_spellings": "Swiss Confederation Schweiz Suisse Svizzera Svizra"
    },
    {
        "name_ru": "Колумбия",
        "name_mn": "Колумб",
        "name_fr": "Colombie",
        "name_sv": "Colombia",
        "name_sw": "Kolombia",
        "name_es": "Colombia",
        "name_ar": "كولومبيا",
        "name_pl": "Kolumbia",
        "name_de": "Kolumbien",
        "ISO3": "COL",
        "ISO": "CO",
        "name_tr": "Kolombiya",
        "capital": "Bogota",
        "name_fi": "Kolumbia",
        "name_it": "Colombia",
        "name_en": "Colombia",
        "continent": "SA",
        "name_pt": "Colômbia"
    },
    {
        "name_ru": "Китай",
        "name_mn": "Хятад",
        "name_fr": "Chine",
        "name_sv": "Kina",
        "name_sw": "China",
        "name_es": "China",
        "name_ar": "الصين",
        "name_pl": "Chiny",
        "name_de": "China",
        "ISO3": "CHN",
        "ISO": "CN",
        "name_tr": "Çin",
        "capital": "Beijing",
        "name_fi": "Kiina",
        "name_it": "Cina",
        "name_en": "China",
        "continent": "AS",
        "name_pt": "China"
    },
    {
        "name_ru": "Камерун",
        "name_mn": "Камерун",
        "name_fr": "Cameroun",
        "name_sv": "Kamerun",
        "name_sw": "Kameruni",
        "name_es": "Camerún",
        "name_ar": "الكاميرون",
        "name_pl": "Kamerun",
        "name_de": "Kamerun",
        "ISO3": "CMR",
        "ISO": "CM",
        "name_tr": "Kamerun",
        "capital": "Yaounde",
        "name_fi": "Kamerun",
        "name_it": "Camerun",
        "name_en": "Cameroon",
        "continent": "AF",
        "name_pt": "República dos Camarões"
    },
    {
        "name_ru": "Чили",
        "name_mn": "Чили",
        "name_fr": "Chili",
        "name_sv": "Chile",
        "name_sw": "Chile",
        "name_es": "Chile",
        "name_ar": "تشيلي",
        "name_pl": "Chile",
        "name_de": "Chile",
        "ISO3": "CHL",
        "ISO": "CL",
        "name_tr": "Şili",
        "capital": "Santiago",
        "name_fi": "Chile",
        "name_it": "Cile",
        "name_en": "Chile",
        "continent": "SA",
        "name_pt": "Chile"
    },
    {
        "name_ru": "Кокосовые о-ва",
        "name_mn": "Кокос (Кийлинг) арлууд",
        "name_fr": "Îles Cocos",
        "name_sv": "Kokosöarna",
        "name_sw": "Visiwa vya Cocos (Keeling)",
        "name_es": "Islas Cocos",
        "name_ar": "جزر كوكوس (كيلينغ)",
        "name_pl": "Wyspy Kokosowe",
        "name_de": "Kokosinseln",
        "ISO3": "CCK",
        "ISO": "CC",
        "name_tr": "Cocos (Keeling) Adaları",
        "capital": "West Island",
        "name_fi": "Kookossaaret (Keelingsaaret)",
        "name_it": "Isole Cocos (Keeling)",
        "name_en": "Cocos (Keeling) Islands",
        "name_pt": "Ilhas Cocos (Keeling)",
        "continent": "AS",
        "alternates": [
            "Cocos Islands"
        ]
    },
    {
        "name_ru": "Йемен",
        "name_mn": "Йемен",
        "name_fr": "Yémen",
        "name_sv": "Jemen",
        "name_sw": "Yemeni",
        "name_es": "Yemen",
        "name_ar": "اليمن",
        "name_pl": "Jemen",
        "name_de": "Jemen",
        "ISO3": "YEM",
        "ISO": "YE",
        "name_tr": "Yemen",
        "capital": "Sanaa",
        "name_fi": "Jemen",
        "name_it": "Yemen",
        "name_en": "Yemen",
        "continent": "AS",
        "name_pt": "Iêmen"
    },
    {
        "name_ru": "Канада",
        "name_mn": "Канад",
        "name_fr": "Canada",
        "name_sv": "Kanada",
        "name_sw": "Kanada",
        "name_es": "Canadá",
        "name_ar": "كندا",
        "name_pl": "Kanada",
        "name_de": "Kanada",
        "ISO3": "CAN",
        "ISO": "CA",
        "name_tr": "Kanada",
        "capital": "Ottawa",
        "name_fi": "Kanada",
        "name_it": "Canada",
        "name_en": "Canada",
        "continent": "NA",
        "name_pt": "Canadá"
    },
    {
        "name_ru": "Конго - Браззавиль",
        "name_mn": "Конго Браззавиль",
        "name_fr": "Congo-Brazzaville",
        "name_sv": "Kongo-Brazzaville",
        "name_sw": "Kongo - Brazzaville",
        "name_es": "República del Congo",
        "name_ar": "الكونغو - برازافيل",
        "name_pl": "Kongo",
        "name_de": "Kongo-Brazzaville",
        "ISO3": "COG",
        "ISO": "CG",
        "name_tr": "Kongo - Brazavil",
        "capital": "Brazzaville",
        "name_fi": "Kongon tasavalta",
        "name_it": "Congo-Brazzaville",
        "name_en": "Congo - Brazzaville",
        "alternates": [
            "Конго (Бүгд Найрамдах улс)",
            "Kongo-Brazzaville",
            "Республика Конго",
            "Republiken Kongo",
            "Congo",
            "Jamhuri ya Kongo",
            "Congo (Republic)",
            "Congo (Repubblica)",
            "République du Congo",
            "Congo (República)",
            "جمهورية الكونغو",
            "Republika Konga",
            "Kongo Cumhuriyeti"
        ],
        "continent": "AF",
        "name_pt": "Congo - Brazzaville"
    },
    {
        "name_ru": "ЦАР",
        "name_mn": "Төв Африкийн Бүгд Найрамдах Улс",
        "name_fr": "République centrafricaine",
        "name_sv": "Centralafrikanska republiken",
        "name_sw": "Jamhuri ya Afrika ya Kati",
        "name_es": "República Centroafricana",
        "name_ar": "جمهورية أفريقيا الوسطى",
        "name_pl": "Republika Środkowoafrykańska",
        "name_de": "Zentralafrikanische Republik",
        "ISO3": "CAF",
        "ISO": "CF",
        "name_tr": "Orta Afrika Cumhuriyeti",
        "capital": "Bangui",
        "name_fi": "Keski-Afrikan tasavalta",
        "name_it": "Repubblica Centrafricana",
        "name_en": "Central African Republic",
        "continent": "AF",
        "name_pt": "República Centro-Africana"
    },
    {
        "name_ru": "Конго - Киншаса",
        "name_mn": "Конго-Киншаса",
        "name_fr": "Congo-Kinshasa",
        "name_sv": "Kongo-Kinshasa",
        "name_sw": "Jamhuri ya Kidemokrasia ya Kongo",
        "name_es": "República Democrática del Congo",
        "name_ar": "الكونغو - كينشاسا",
        "name_pl": "Demokratyczna Republika Konga",
        "name_de": "Kongo-Kinshasa",
        "ISO3": "COD",
        "ISO": "CD",
        "name_tr": "Kongo - Kinşasa",
        "capital": "Kinshasa",
        "name_fi": "Kongon demokraattinen tasavalta",
        "name_it": "Congo - Kinshasa",
        "name_en": "Congo - Kinshasa",
        "alternates": [
            "Конго (БНУ)",
            "Kongo-Kinshasa",
            "Конго (ДРК)",
            "Demokratiska republiken Kongo",
            "República Democrática do Congo",
            "Kongo (DRC)",
            "Congo (DRC)",
            "Congo (RDC)",
            "Congo (RDC)",
            "Congo (República Democrática del Congo)",
            "جمهورية الكونغو الديمقراطية",
            "CD",
            "Kongo Demokratik Cumhuriyeti"
        ],
        "continent": "AF",
        "name_pt": "Congo - Kinshasa"
    },
    {
        "name_ru": "Чехия",
        "name_mn": "Бүгд Найрамдах Чех Улс",
        "name_fr": "République tchèque",
        "name_sv": "Tjeckien",
        "name_sw": "Jamhuri ya Cheki",
        "name_es": "República Checa",
        "name_ar": "جمهورية التشيك",
        "name_pl": "Czechy",
        "name_de": "Tschechische Republik",
        "ISO3": "CZE",
        "ISO": "CZ",
        "name_tr": "Çek Cumhuriyeti",
        "capital": "Prague",
        "name_fi": "Tšekki",
        "name_it": "Repubblica Ceca",
        "name_en": "Czech Republic",
        "alternates": [
            "Чех",
            "Tšekinmaa",
            "CZ",
            "CZ",
            "Tchéquia",
            "CZ",
            "Czechia",
            "Cèchia",
            "Tchéquie",
            "Chequia",
            "التشيك",
            "Republika Czeska",
            "Çekya"
        ],
        "continent": "EU",
        "name_pt": "República Tcheca"
    },
    {
        "name_ru": "Кипр",
        "name_mn": "Кипр",
        "name_fr": "Chypre",
        "name_sv": "Cypern",
        "name_sw": "Cyprus",
        "name_es": "Chipre",
        "name_ar": "قبرص",
        "name_pl": "Cypr",
        "name_de": "Zypern",
        "ISO3": "CYP",
        "ISO": "CY",
        "name_tr": "Kıbrıs",
        "capital": "Nicosia",
        "name_fi": "Kypros",
        "name_it": "Cipro",
        "name_en": "Cyprus",
        "continent": "EU",
        "name_pt": "Chipre"
    },
    {
        "name_ru": "о-в Рождества",
        "name_mn": "Зул сарын арал",
        "name_fr": "Île Christmas",
        "name_sv": "Julön",
        "name_sw": "Kisiwa cha Krismasi",
        "name_es": "Isla de Navidad",
        "name_ar": "جزيرة الكريسماس",
        "name_pl": "Wyspa Bożego Narodzenia",
        "name_de": "Weihnachtsinsel",
        "ISO3": "CXR",
        "ISO": "CX",
        "name_tr": "Christmas Adası",
        "capital": "Flying Fish Cove",
        "name_fi": "Joulusaari",
        "name_it": "Isola Christmas",
        "name_en": "Christmas Island",
        "continent": "AS",
        "name_pt": "Ilha Christmas"
    },
    {
        "name_ru": "Коста-Рика",
        "name_mn": "Коста Рика",
        "name_fr": "Costa Rica",
        "name_sv": "Costa Rica",
        "name_sw": "Kostarika",
        "name_es": "Costa Rica",
        "name_ar": "كوستاريكا",
        "name_pl": "Kostaryka",
        "name_de": "Costa Rica",
        "ISO3": "CRI",
        "ISO": "CR",
        "name_tr": "Kosta Rika",
        "capital": "San Jose",
        "name_fi": "Costa Rica",
        "name_it": "Costa Rica",
        "name_en": "Costa Rica",
        "continent": "NA",
        "name_pt": "Costa Rica"
    },
    {
        "name_ru": "Парагвай",
        "name_mn": "Парагвай",
        "name_fr": "Paraguay",
        "name_sv": "Paraguay",
        "name_sw": "Paragwai",
        "name_es": "Paraguay",
        "name_ar": "باراغواي",
        "name_pl": "Paragwaj",
        "name_de": "Paraguay",
        "ISO3": "PRY",
        "ISO": "PY",
        "name_tr": "Paraguay",
        "capital": "Asuncion",
        "name_fi": "Paraguay",
        "name_it": "Paraguay",
        "name_en": "Paraguay",
        "continent": "SA",
        "name_pt": "Paraguai"
    },
    {
        "name_ru": "о-в Клиппертон",
        "name_mn": "Клиппертон арал",
        "name_fr": "Île Clipperton",
        "name_sv": "Clippertonön",
        "name_sw": "Kisiwa cha Clipperton",
        "name_es": "Isla Clipperton",
        "name_ar": "جزيرة كليبيرتون",
        "name_pl": "Clipperton",
        "name_de": "Clipperton-Insel",
        "ISO": "CP",
        "name_tr": "Clipperton Adası",
        "name_fi": "Clippertoninsaari",
        "name_it": "Isola di Clipperton",
        "name_en": "Clipperton Island",
        "name_pt": "Ilha de Clipperton"
    },
    {
        "name_ru": "Кюрасао",
        "name_mn": "Куракао",
        "name_fr": "Curaçao",
        "name_sv": "Curaçao",
        "name_sw": "Kurakao",
        "name_es": "Curazao",
        "name_ar": "كوراساو",
        "name_pl": "Curaçao",
        "name_de": "Curaçao",
        "ISO3": "CUW",
        "ISO": "CW",
        "name_tr": "Curaçao",
        "capital": " Willemstad",
        "name_fi": "Curaçao",
        "name_it": "Curaçao",
        "name_en": "Curaçao",
        "name_pt": "Curaçao",
        "continent": "NA",
        "alternates": [
            "Curacao"
        ]
    },
    {
        "name_ru": "Кабо-Верде",
        "name_mn": "Капе Верде",
        "name_fr": "Cap-Vert",
        "name_sv": "Kap Verde",
        "name_sw": "Cape Verde",
        "name_es": "Cabo Verde",
        "name_ar": "الرأس الأخضر",
        "name_pl": "Republika Zielonego Przylądka",
        "name_de": "Cabo Verde",
        "ISO3": "CPV",
        "ISO": "CV",
        "name_tr": "Cape Verde",
        "capital": "Praia",
        "name_fi": "Kap Verde",
        "name_it": "Capo Verde",
        "name_en": "Cape Verde",
        "continent": "AF",
        "name_pt": "Cabo Verde"
    },
    {
        "name_ru": "Куба",
        "name_mn": "Куба",
        "name_fr": "Cuba",
        "name_sv": "Kuba",
        "name_sw": "Kuba",
        "name_es": "Cuba",
        "name_ar": "كوبا",
        "name_pl": "Kuba",
        "name_de": "Kuba",
        "ISO3": "CUB",
        "ISO": "CU",
        "name_tr": "Küba",
        "capital": "Havana",
        "name_fi": "Kuuba",
        "name_it": "Cuba",
        "name_en": "Cuba",
        "continent": "NA",
        "name_pt": "Cuba"
    },
    {
        "name_ru": "Свазиленд",
        "name_mn": "Свазиланд",
        "name_fr": "Swaziland",
        "name_sv": "Swaziland",
        "name_sw": "Uswazi",
        "name_es": "Suazilandia",
        "name_ar": "سوازيلاند",
        "name_pl": "Suazi",
        "name_de": "Swasiland",
        "ISO3": "SWZ",
        "ISO": "SZ",
        "name_tr": "Svaziland",
        "capital": "Mbabane",
        "name_fi": "Swazimaa",
        "name_it": "Swaziland",
        "name_en": "Swaziland",
        "continent": "AF",
        "name_pt": "Suazilândia"
    },
    {
        "name_ru": "Сирия",
        "name_mn": "Сири",
        "name_fr": "Syrie",
        "name_sv": "Syrien",
        "name_sw": "Syria",
        "name_es": "Siria",
        "name_ar": "سوريا",
        "name_pl": "Syria",
        "name_de": "Syrien",
        "ISO3": "SYR",
        "ISO": "SY",
        "name_tr": "Suriye",
        "capital": "Damascus",
        "name_fi": "Syyria",
        "name_it": "Siria",
        "name_en": "Syria",
        "continent": "AS",
        "name_pt": "Síria"
    },
    {
        "name_ru": "Синт-Мартен",
        "name_mn": "Синт Мартен",
        "name_fr": "Saint-Martin (partie néerlandaise)",
        "name_sv": "Sint Maarten",
        "name_sw": "Sint Maarten",
        "name_es": "Sint Maarten",
        "name_ar": "سينت مارتن",
        "name_pl": "Sint Maarten",
        "name_de": "Sint Maarten",
        "ISO3": "SXM",
        "ISO": "SX",
        "name_tr": "Sint Maarten",
        "capital": "Philipsburg",
        "name_fi": "Sint Maarten",
        "name_it": "Sint Maarten",
        "name_en": "Sint Maarten",
        "continent": "NA",
        "name_pt": "Sint Maarten"
    },
    {
        "name_ru": "Киргизия",
        "name_mn": "Кыргызстан",
        "name_fr": "Kirghizistan",
        "name_sv": "Kirgizistan",
        "name_sw": "Kirigizistani",
        "name_es": "Kirguistán",
        "name_ar": "قيرغيزستان",
        "name_pl": "Kirgistan",
        "name_de": "Kirgisistan",
        "ISO3": "KGZ",
        "ISO": "KG",
        "name_tr": "Kırgızistan",
        "capital": "Bishkek",
        "name_fi": "Kirgisia",
        "name_it": "Kirghizistan",
        "name_en": "Kyrgyzstan",
        "continent": "AS",
        "name_pt": "Quirguistão"
    },
    {
        "name_ru": "Кения",
        "name_mn": "Кени",
        "name_fr": "Kenya",
        "name_sv": "Kenya",
        "name_sw": "Kenya",
        "name_es": "Kenia",
        "name_ar": "كينيا",
        "name_pl": "Kenia",
        "name_de": "Kenia",
        "ISO3": "KEN",
        "ISO": "KE",
        "name_tr": "Kenya",
        "capital": "Nairobi",
        "name_fi": "Kenia",
        "name_it": "Kenya",
        "name_en": "Kenya",
        "continent": "AF",
        "name_pt": "Quênia"
    },
    {
        "name_ru": "Южный Судан",
        "name_mn": "Өмнөд Судан",
        "name_fr": "Soudan du Sud",
        "name_sv": "Sydsudan",
        "name_sw": "Sudan Kusini",
        "name_es": "Sudán del Sur",
        "name_ar": "جنوب السودان",
        "name_pl": "Sudan Południowy",
        "name_de": "Südsudan",
        "ISO3": "SSD",
        "ISO": "SS",
        "name_tr": "Güney Sudan",
        "capital": "Juba",
        "name_fi": "Etelä-Sudan",
        "name_it": "Sud Sudan",
        "name_en": "South Sudan",
        "continent": "AF",
        "name_pt": "Sudão do Sul"
    },
    {
        "name_ru": "Суринам",
        "name_mn": "Суринам",
        "name_fr": "Suriname",
        "name_sv": "Surinam",
        "name_sw": "Surinamu",
        "name_es": "Surinam",
        "name_ar": "سورينام",
        "name_pl": "Surinam",
        "name_de": "Suriname",
        "ISO3": "SUR",
        "ISO": "SR",
        "name_tr": "Surinam",
        "capital": "Paramaribo",
        "name_fi": "Suriname",
        "name_it": "Suriname",
        "name_en": "Suriname",
        "continent": "SA",
        "name_pt": "Suriname"
    },
    {
        "name_ru": "Камбоджа",
        "name_mn": "Камбож",
        "name_fr": "Cambodge",
        "name_sv": "Kambodja",
        "name_sw": "Kambodia",
        "name_es": "Camboya",
        "name_ar": "كمبوديا",
        "name_pl": "Kambodża",
        "name_de": "Kambodscha",
        "ISO3": "KHM",
        "ISO": "KH",
        "name_tr": "Kamboçya",
        "capital": "Phnom Penh",
        "name_fi": "Kambodža",
        "name_it": "Cambogia",
        "name_en": "Cambodia",
        "continent": "AS",
        "name_pt": "Camboja"
    },
    {
        "name_ru": "Сент-Китс и Невис",
        "name_mn": "Сент-Киттс ба Невис",
        "name_fr": "Saint-Christophe-et-Niévès",
        "name_sv": "S:t Kitts och Nevis",
        "name_sw": "Santakitzi na Nevis",
        "name_es": "San Cristóbal y Nieves",
        "name_ar": "سانت كيتس ونيفيس",
        "name_pl": "Saint Kitts i Nevis",
        "name_de": "St. Kitts und Nevis",
        "ISO3": "KNA",
        "ISO": "KN",
        "name_tr": "Saint Kitts ve Nevis",
        "capital": "Basseterre",
        "name_fi": "Saint Kitts ja Nevis",
        "name_it": "Saint Kitts e Nevis",
        "name_en": "St. Kitts & Nevis",
        "name_pt": "São Cristóvão e Nevis",
        "continent": "NA",
        "alternates": [
            "Saint Kitts and Nevis"
        ]
    },
    {
        "name_ru": "Коморы",
        "name_mn": "Коморос",
        "name_fr": "Comores",
        "name_sv": "Komorerna",
        "name_sw": "Komoro",
        "name_es": "Comoras",
        "name_ar": "جزر القمر",
        "name_pl": "Komory",
        "name_de": "Komoren",
        "ISO3": "COM",
        "ISO": "KM",
        "name_tr": "Komorlar",
        "capital": "Moroni",
        "name_fi": "Komorit",
        "name_it": "Comore",
        "name_en": "Comoros",
        "continent": "AF",
        "name_pt": "Comores"
    },
    {
        "name_ru": "Сан-Томе и Принсипи",
        "name_mn": "Сан-Томе ба Принсипи",
        "name_fr": "Sao Tomé-et-Principe",
        "name_sv": "São Tomé och Príncipe",
        "name_sw": "São Tomé na Príncipe",
        "name_es": "Santo Tomé y Príncipe",
        "name_ar": "ساو تومي وبرينسيبي",
        "name_pl": "Wyspy Świętego Tomasza i Książęca",
        "name_de": "São Tomé und Príncipe",
        "ISO3": "STP",
        "ISO": "ST",
        "name_tr": "São Tomé ve Príncipe",
        "capital": "Sao Tome",
        "name_fi": "São Tomé ja Príncipe",
        "name_it": "São Tomé e Príncipe",
        "name_en": "São Tomé & Príncipe",
        "name_pt": "São Tomé e Príncipe",
        "continent": "AF",
        "alternates": [
            "Sao Tome and Principe"
        ]
    },
    {
        "name_ru": "Словакия",
        "name_mn": "Словак",
        "name_fr": "Slovaquie",
        "name_sv": "Slovakien",
        "name_sw": "Slovakia",
        "name_es": "Eslovaquia",
        "name_ar": "سلوفاكيا",
        "name_pl": "Słowacja",
        "name_de": "Slowakei",
        "ISO3": "SVK",
        "ISO": "SK",
        "name_tr": "Slovakya",
        "capital": "Bratislava",
        "name_fi": "Slovakia",
        "name_it": "Slovacchia",
        "name_en": "Slovakia",
        "continent": "EU",
        "name_pt": "Eslováquia"
    },
    {
        "name_ru": "Республика Корея",
        "name_mn": "Өмнөд Солонгос",
        "name_fr": "Corée du Sud",
        "name_sv": "Sydkorea",
        "name_sw": "Korea Kusini",
        "name_es": "Corea del Sur",
        "name_ar": "كوريا الجنوبية",
        "name_pl": "Korea Południowa",
        "name_de": "Südkorea",
        "ISO3": "KOR",
        "ISO": "KR",
        "name_tr": "Güney Kore",
        "capital": "Seoul",
        "name_fi": "Etelä-Korea",
        "name_it": "Corea del Sud",
        "name_en": "South Korea",
        "name_pt": "Coreia do Sul",
        "continent": "AS",
        "alternative_spellings": "South Korea"
    },
    {
        "name_ru": "Словения",
        "name_mn": "Словени",
        "name_fr": "Slovénie",
        "name_sv": "Slovenien",
        "name_sw": "Slovenia",
        "name_es": "Eslovenia",
        "name_ar": "سلوفينيا",
        "name_pl": "Słowenia",
        "name_de": "Slowenien",
        "ISO3": "SVN",
        "ISO": "SI",
        "name_tr": "Slovenya",
        "capital": "Ljubljana",
        "name_fi": "Slovenia",
        "name_it": "Slovenia",
        "name_en": "Slovenia",
        "continent": "EU",
        "name_pt": "Eslovênia"
    },
    {
        "name_ru": "КНДР",
        "name_mn": "Хойд Солонгос",
        "name_fr": "Corée du Nord",
        "name_sv": "Nordkorea",
        "name_sw": "Korea Kaskazini",
        "name_es": "Corea del Norte",
        "name_ar": "كوريا الشمالية",
        "name_pl": "Korea Północna",
        "name_de": "Nordkorea",
        "ISO3": "PRK",
        "ISO": "KP",
        "name_tr": "Kuzey Kore",
        "capital": "Pyongyang",
        "name_fi": "Pohjois-Korea",
        "name_it": "Corea del Nord",
        "name_en": "North Korea",
        "continent": "AS",
        "name_pt": "Coreia do Norte"
    },
    {
        "name_ru": "Кувейт",
        "name_mn": "Кувейт",
        "name_fr": "Koweït",
        "name_sv": "Kuwait",
        "name_sw": "Kuwait",
        "name_es": "Kuwait",
        "name_ar": "الكويت",
        "name_pl": "Kuwejt",
        "name_de": "Kuwait",
        "ISO3": "KWT",
        "ISO": "KW",
        "name_tr": "Kuveyt",
        "capital": "Kuwait City",
        "name_fi": "Kuwait",
        "name_it": "Kuwait",
        "name_en": "Kuwait",
        "continent": "AS",
        "name_pt": "Kuwait"
    },
    {
        "name_ru": "Сенегал",
        "name_mn": "Сенегал",
        "name_fr": "Sénégal",
        "name_sv": "Senegal",
        "name_sw": "Senegali",
        "name_es": "Senegal",
        "name_ar": "السنغال",
        "name_pl": "Senegal",
        "name_de": "Senegal",
        "ISO3": "SEN",
        "ISO": "SN",
        "name_tr": "Senegal",
        "capital": "Dakar",
        "name_fi": "Senegal",
        "name_it": "Senegal",
        "name_en": "Senegal",
        "continent": "AF",
        "name_pt": "Senegal"
    },
    {
        "name_ru": "Сан-Марино",
        "name_mn": "Сан-Марино",
        "name_fr": "Saint-Marin",
        "name_sv": "San Marino",
        "name_sw": "San Marino",
        "name_es": "San Marino",
        "name_ar": "سان مارينو",
        "name_pl": "San Marino",
        "name_de": "San Marino",
        "ISO3": "SMR",
        "ISO": "SM",
        "name_tr": "San Marino",
        "capital": "San Marino",
        "name_fi": "San Marino",
        "name_it": "San Marino",
        "name_en": "San Marino",
        "continent": "EU",
        "name_pt": "San Marino"
    },
    {
        "name_ru": "Сьерра-Леоне",
        "name_mn": "Сьерра-Леоне",
        "name_fr": "Sierra Leone",
        "name_sv": "Sierra Leone",
        "name_sw": "Siera Leoni",
        "name_es": "Sierra Leona",
        "name_ar": "سيراليون",
        "name_pl": "Sierra Leone",
        "name_de": "Sierra Leone",
        "ISO3": "SLE",
        "ISO": "SL",
        "name_tr": "Sierra Leone",
        "capital": "Freetown",
        "name_fi": "Sierra Leone",
        "name_it": "Sierra Leone",
        "name_en": "Sierra Leone",
        "continent": "AF",
        "name_pt": "Serra Leoa"
    },
    {
        "name_ru": "Сейшельские Острова",
        "name_mn": "Сейшел",
        "name_fr": "Seychelles",
        "name_sv": "Seychellerna",
        "name_sw": "Ushelisheli",
        "name_es": "Seychelles",
        "name_ar": "سيشل",
        "name_pl": "Seszele",
        "name_de": "Seychellen",
        "ISO3": "SYC",
        "ISO": "SC",
        "name_tr": "Seyşeller",
        "capital": "Victoria",
        "name_fi": "Seychellit",
        "name_it": "Seychelles",
        "name_en": "Seychelles",
        "continent": "AF",
        "name_pt": "Seicheles"
    },
    {
        "name_ru": "Казахстан",
        "name_mn": "Казахстан",
        "name_fr": "Kazakhstan",
        "name_sv": "Kazakstan",
        "name_sw": "Kazakistani",
        "name_es": "Kazajistán",
        "name_ar": "كازاخستان",
        "name_pl": "Kazachstan",
        "name_de": "Kasachstan",
        "ISO3": "KAZ",
        "ISO": "KZ",
        "name_tr": "Kazakistan",
        "capital": "Astana",
        "name_fi": "Kazakstan",
        "name_it": "Kazakistan",
        "name_en": "Kazakhstan",
        "continent": "AS",
        "name_pt": "Cazaquistão"
    },
    {
        "name_ru": "Каймановы о-ва",
        "name_mn": "Кайманы Арлууд",
        "name_fr": "Îles Caïmans",
        "name_sv": "Caymanöarna",
        "name_sw": "Visiwa vya Kayman",
        "name_es": "Islas Caimán",
        "name_ar": "جزر كايمان",
        "name_pl": "Kajmany",
        "name_de": "Kaimaninseln",
        "ISO3": "CYM",
        "ISO": "KY",
        "name_tr": "Cayman Adaları",
        "capital": "George Town",
        "name_fi": "Caymansaaret",
        "name_it": "Isole Cayman",
        "name_en": "Cayman Islands",
        "continent": "NA",
        "name_pt": "Ilhas Cayman"
    },
    {
        "name_ru": "Сингапур",
        "name_mn": "Сингапур",
        "name_fr": "Singapour",
        "name_sv": "Singapore",
        "name_sw": "Singapore",
        "name_es": "Singapur",
        "name_ar": "سنغافورة",
        "name_pl": "Singapur",
        "name_de": "Singapur",
        "ISO3": "SGP",
        "ISO": "SG",
        "name_tr": "Singapur",
        "capital": "Singapore",
        "name_fi": "Singapore",
        "name_it": "Singapore",
        "name_en": "Singapore",
        "continent": "AS",
        "name_pt": "Cingapura"
    },
    {
        "name_ru": "Швеция",
        "name_mn": "Швед",
        "name_fr": "Suède",
        "name_sv": "Sverige",
        "name_sw": "Uswidi",
        "name_es": "Suecia",
        "name_ar": "السويد",
        "name_pl": "Szwecja",
        "name_de": "Schweden",
        "ISO3": "SWE",
        "ISO": "SE",
        "name_tr": "İsveç",
        "capital": "Stockholm",
        "name_fi": "Ruotsi",
        "name_it": "Svezia",
        "name_en": "Sweden",
        "continent": "EU",
        "name_pt": "Suécia"
    },
    {
        "name_ru": "Судан",
        "name_mn": "Судан",
        "name_fr": "Soudan",
        "name_sv": "Sudan",
        "name_sw": "Sudan",
        "name_es": "Sudán",
        "name_ar": "السودان",
        "name_pl": "Sudan",
        "name_de": "Sudan",
        "ISO3": "SDN",
        "ISO": "SD",
        "name_tr": "Sudan",
        "capital": "Khartoum",
        "name_fi": "Sudan",
        "name_it": "Sudan",
        "name_en": "Sudan",
        "continent": "AF",
        "name_pt": "Sudão"
    },
    {
        "name_ru": "Доминика",
        "name_mn": "Доминик",
        "name_fr": "Dominique",
        "name_sv": "Dominica",
        "name_sw": "Dominika",
        "name_es": "Dominica",
        "name_ar": "دومينيكا",
        "name_pl": "Dominika",
        "name_de": "Dominica",
        "ISO3": "DMA",
        "ISO": "DM",
        "name_tr": "Dominika",
        "capital": "Roseau",
        "name_fi": "Dominica",
        "name_it": "Dominica",
        "name_en": "Dominica",
        "continent": "NA",
        "name_pt": "Dominica"
    },
    {
        "name_ru": "Виргинские о-ва (Британские)",
        "name_mn": "Британийн Виржиний Арлууд",
        "name_fr": "Îles Vierges britanniques",
        "name_sv": "Brittiska Jungfruöarna",
        "name_sw": "Visiwa vya Virgin vya Uingereza",
        "name_es": "Islas Vírgenes Británicas",
        "name_ar": "جزر فيرجن البريطانية",
        "name_pl": "Brytyjskie Wyspy Dziewicze",
        "name_de": "Britische Jungferninseln",
        "ISO3": "VGB",
        "ISO": "VG",
        "name_tr": "Britanya Virjin Adaları",
        "capital": "Road Town",
        "name_fi": "Brittiläiset Neitsytsaaret",
        "name_it": "Isole Vergini Britanniche",
        "name_en": "British Virgin Islands",
        "continent": "NA",
        "name_pt": "Ilhas Virgens Britânicas"
    },
    {
        "name_ru": "Диего-Гарсия",
        "name_mn": "Диего Гарсиа",
        "name_fr": "Diego Garcia",
        "name_sv": "Diego Garcia",
        "name_sw": "Diego Garcia",
        "name_es": "Diego García",
        "name_ar": "دييغو غارسيا",
        "name_pl": "Diego Garcia",
        "name_de": "Diego Garcia",
        "ISO": "DG",
        "name_tr": "Diego Garcia",
        "name_fi": "Diego Garcia",
        "name_it": "Diego Garcia",
        "name_en": "Diego Garcia",
        "name_pt": "Diego Garcia"
    },
    {
        "name_ru": "Германия",
        "name_mn": "Герман",
        "name_fr": "Allemagne",
        "name_sv": "Tyskland",
        "name_sw": "Ujerumani",
        "name_es": "Alemania",
        "name_ar": "ألمانيا",
        "name_pl": "Niemcy",
        "name_de": "Deutschland",
        "ISO3": "DEU",
        "ISO": "DE",
        "name_tr": "Almanya",
        "capital": "Berlin",
        "name_fi": "Saksa",
        "name_it": "Germania",
        "name_en": "Germany",
        "name_pt": "Alemanha",
        "continent": "EU",
        "alternative_spellings": "Bundesrepublik"
    },
    {
        "name_ru": "Маршалловы Острова",
        "name_mn": "Маршаллын арлууд",
        "name_fr": "Îles Marshall",
        "name_sv": "Marshallöarna",
        "name_sw": "Visiwa vya Marshall",
        "name_es": "Islas Marshall",
        "name_ar": "جزر مارشال",
        "name_pl": "Wyspy Marshalla",
        "name_de": "Marshallinseln",
        "ISO3": "MHL",
        "ISO": "MH",
        "name_tr": "Marshall Adaları",
        "capital": "Majuro",
        "name_fi": "Marshallinsaaret",
        "name_it": "Isole Marshall",
        "name_en": "Marshall Islands",
        "continent": "OC",
        "name_pt": "Ilhas Marshall"
    },
    {
        "name_ru": "Алжир",
        "name_mn": "Алжир",
        "name_fr": "Algérie",
        "name_sv": "Algeriet",
        "name_sw": "Aljeria",
        "name_es": "Argelia",
        "name_ar": "الجزائر",
        "name_pl": "Algieria",
        "name_de": "Algerien",
        "ISO3": "DZA",
        "ISO": "DZ",
        "name_tr": "Cezayir",
        "capital": "Algiers",
        "name_fi": "Algeria",
        "name_it": "Algeria",
        "name_en": "Algeria",
        "continent": "AF",
        "name_pt": "Argélia"
    },
    {
        "name_ru": "Соединенные Штаты",
        "name_mn": "Америкийн Нэгдсэн Улс",
        "name_fr": "États-Unis",
        "name_sv": "USA",
        "name_sw": "Marekani",
        "name_es": "Estados Unidos",
        "name_ar": "الولايات المتحدة",
        "name_pl": "Stany Zjednoczone",
        "name_de": "Vereinigte Staaten",
        "ISO3": "USA",
        "ISO": "US",
        "name_tr": "Amerika Birleşik Devletleri",
        "capital": "Washington",
        "name_fi": "Yhdysvallat",
        "name_it": "Stati Uniti",
        "name_en": "United States",
        "alternates": [
            "АНУ",
            "USA",
            "США",
            "USA",
            "EUA",
            "US",
            "US",
            "USA",
            "É.-U.",
            "EE. UU.",
            "الولايات المتحدة",
            "USA",
            "ABD"
        ],
        "continent": "NA",
        "name_pt": "Estados Unidos"
    },
    {
        "name_ru": "Майотта",
        "name_mn": "Майотте",
        "name_fr": "Mayotte",
        "name_sv": "Mayotte",
        "name_sw": "Mayotte",
        "name_es": "Mayotte",
        "name_ar": "مايوت",
        "name_pl": "Majotta",
        "name_de": "Mayotte",
        "ISO3": "MYT",
        "ISO": "YT",
        "name_tr": "Mayotte",
        "capital": "Mamoudzou",
        "name_fi": "Mayotte",
        "name_it": "Mayotte",
        "name_en": "Mayotte",
        "continent": "AF",
        "name_pt": "Mayotte"
    },
    {
        "name_ru": "Внешние малые о-ва (США)",
        "name_mn": "АНУ-ын тойрсон арлууд",
        "name_fr": "Îles mineures éloignées des États-Unis",
        "name_sv": "USA:s yttre öar",
        "name_sw": "Visiwa Vidogo vya Nje vya Marekani",
        "name_es": "Islas menores alejadas de EE. UU.",
        "name_ar": "جزر الولايات المتحدة النائية",
        "name_pl": "Dalekie Wyspy Mniejsze Stanów Zjednoczonych",
        "name_de": "Amerikanische Überseeinseln",
        "ISO3": "UMI",
        "ISO": "UM",
        "name_tr": "ABD Uzak Adaları",
        "capital": "",
        "name_fi": "Yhdysvaltain erillissaaret",
        "name_it": "Altre isole americane del Pacifico",
        "name_en": "U.S. Outlying Islands",
        "name_pt": "Ilhas Menores Distantes dos EUA",
        "continent": "OC",
        "alternates": [
            "United States Minor Outlying Islands"
        ]
    },
    {
        "name_ru": "Ливан",
        "name_mn": "Ливан",
        "name_fr": "Liban",
        "name_sv": "Libanon",
        "name_sw": "Lebanon",
        "name_es": "Líbano",
        "name_ar": "لبنان",
        "name_pl": "Liban",
        "name_de": "Libanon",
        "ISO3": "LBN",
        "ISO": "LB",
        "name_tr": "Lübnan",
        "capital": "Beirut",
        "name_fi": "Libanon",
        "name_it": "Libano",
        "name_en": "Lebanon",
        "continent": "AS",
        "name_pt": "Líbano"
    },
    {
        "name_ru": "Сент-Люсия",
        "name_mn": "Сент Люсиа",
        "name_fr": "Sainte-Lucie",
        "name_sv": "S:t Lucia",
        "name_sw": "Santalusia",
        "name_es": "Santa Lucía",
        "name_ar": "سانت لوسيا",
        "name_pl": "Saint Lucia",
        "name_de": "St. Lucia",
        "ISO3": "LCA",
        "ISO": "LC",
        "name_tr": "Saint Lucia",
        "capital": "Castries",
        "name_fi": "Saint Lucia",
        "name_it": "Saint Lucia",
        "name_en": "St. Lucia",
        "name_pt": "Santa Lúcia",
        "continent": "NA",
        "alternates": [
            "Saint Lucia"
        ]
    },
    {
        "name_ru": "Лаос",
        "name_mn": "Лаос",
        "name_fr": "Laos",
        "name_sv": "Laos",
        "name_sw": "Laosi",
        "name_es": "Laos",
        "name_ar": "لاوس",
        "name_pl": "Laos",
        "name_de": "Laos",
        "ISO3": "LAO",
        "ISO": "LA",
        "name_tr": "Laos",
        "capital": "Vientiane",
        "name_fi": "Laos",
        "name_it": "Laos",
        "name_en": "Laos",
        "continent": "AS",
        "name_pt": "Laos"
    },
    {
        "name_ru": "Тувалу",
        "name_mn": "Тувалу",
        "name_fr": "Tuvalu",
        "name_sv": "Tuvalu",
        "name_sw": "Tuvalu",
        "name_es": "Tuvalu",
        "name_ar": "توفالو",
        "name_pl": "Tuvalu",
        "name_de": "Tuvalu",
        "ISO3": "TUV",
        "ISO": "TV",
        "name_tr": "Tuvalu",
        "capital": "Funafuti",
        "name_fi": "Tuvalu",
        "name_it": "Tuvalu",
        "name_en": "Tuvalu",
        "continent": "OC",
        "name_pt": "Tuvalu"
    },
    {
        "name_ru": "Тайвань",
        "name_mn": "Тайвань",
        "name_fr": "Taïwan",
        "name_sv": "Taiwan",
        "name_sw": "Taiwan",
        "name_es": "Taiwán",
        "name_ar": "تايوان",
        "name_pl": "Tajwan",
        "name_de": "Taiwan",
        "ISO3": "TWN",
        "ISO": "TW",
        "name_tr": "Tayvan",
        "capital": "Taipei",
        "name_fi": "Taiwan",
        "name_it": "Taiwan",
        "name_en": "Taiwan",
        "continent": "AS",
        "name_pt": "Taiwan"
    },
    {
        "name_ru": "Тринидад и Тобаго",
        "name_mn": "Тринидад Тобаго",
        "name_fr": "Trinité-et-Tobago",
        "name_sv": "Trinidad och Tobago",
        "name_sw": "Trinidad na Tobago",
        "name_es": "Trinidad y Tobago",
        "name_ar": "ترينيداد وتوباغو",
        "name_pl": "Trynidad i Tobago",
        "name_de": "Trinidad und Tobago",
        "ISO3": "TTO",
        "ISO": "TT",
        "name_tr": "Trinidad ve Tobago",
        "capital": "Port of Spain",
        "name_fi": "Trinidad ja Tobago",
        "name_it": "Trinidad e Tobago",
        "name_en": "Trinidad & Tobago",
        "name_pt": "Trinidad e Tobago",
        "continent": "NA",
        "alternates": [
            "Trinidad and Tobago"
        ]
    },
    {
        "name_ru": "Турция",
        "name_mn": "Турк",
        "name_fr": "Turquie",
        "name_sv": "Turkiet",
        "name_sw": "Uturuki",
        "name_es": "Turquía",
        "name_ar": "تركيا",
        "name_pl": "Turcja",
        "name_de": "Türkei",
        "ISO3": "TUR",
        "ISO": "TR",
        "name_tr": "Türkiye",
        "capital": "Ankara",
        "name_fi": "Turkki",
        "name_it": "Turchia",
        "name_en": "Turkey",
        "continent": "AS",
        "name_pt": "Turquia"
    },
    {
        "name_ru": "Шри-Ланка",
        "name_mn": "Шри Ланка",
        "name_fr": "Sri Lanka",
        "name_sv": "Sri Lanka",
        "name_sw": "Sri Lanka",
        "name_es": "Sri Lanka",
        "name_ar": "سريلانكا",
        "name_pl": "Sri Lanka",
        "name_de": "Sri Lanka",
        "ISO3": "LKA",
        "ISO": "LK",
        "name_tr": "Sri Lanka",
        "capital": "Colombo",
        "name_fi": "Sri Lanka",
        "name_it": "Sri Lanka",
        "name_en": "Sri Lanka",
        "continent": "AS",
        "name_pt": "Sri Lanka"
    },
    {
        "name_ru": "Лихтенштейн",
        "name_mn": "Лихтенштейн",
        "name_fr": "Liechtenstein",
        "name_sv": "Liechtenstein",
        "name_sw": "Liechtenstein",
        "name_es": "Liechtenstein",
        "name_ar": "ليختنشتاين",
        "name_pl": "Liechtenstein",
        "name_de": "Liechtenstein",
        "ISO3": "LIE",
        "ISO": "LI",
        "name_tr": "Liechtenstein",
        "capital": "Vaduz",
        "name_fi": "Liechtenstein",
        "name_it": "Liechtenstein",
        "name_en": "Liechtenstein",
        "continent": "EU",
        "name_pt": "Liechtenstein"
    },
    {
        "name_ru": "Острова Кука",
        "name_mn": "Күүкийн арлууд",
        "name_fr": "Îles Cook",
        "name_sv": "Cooköarna",
        "name_sw": "Visiwa vya Cook",
        "name_es": "Islas Cook",
        "name_ar": "جزر كوك",
        "name_pl": "Wyspy Cooka",
        "name_de": "Cookinseln",
        "ISO3": "COK",
        "ISO": "CK",
        "name_tr": "Cook Adaları",
        "capital": "Avarua",
        "name_fi": "Cookinsaaret",
        "name_it": "Isole Cook",
        "name_en": "Cook Islands",
        "continent": "OC",
        "name_pt": "Ilhas Cook"
    },
    {
        "name_ru": "Тонга",
        "name_mn": "Тонга",
        "name_fr": "Tonga",
        "name_sv": "Tonga",
        "name_sw": "Tonga",
        "name_es": "Tonga",
        "name_ar": "تونغا",
        "name_pl": "Tonga",
        "name_de": "Tonga",
        "ISO3": "TON",
        "ISO": "TO",
        "name_tr": "Tonga",
        "capital": "Nuku'alofa",
        "name_fi": "Tonga",
        "name_it": "Tonga",
        "name_en": "Tonga",
        "continent": "OC",
        "name_pt": "Tonga"
    },
    {
        "name_ru": "Литва",
        "name_mn": "Литва",
        "name_fr": "Lituanie",
        "name_sv": "Litauen",
        "name_sw": "Lithuania",
        "name_es": "Lituania",
        "name_ar": "ليتوانيا",
        "name_pl": "Litwa",
        "name_de": "Litauen",
        "ISO3": "LTU",
        "ISO": "LT",
        "name_tr": "Litvanya",
        "capital": "Vilnius",
        "name_fi": "Liettua",
        "name_it": "Lituania",
        "name_en": "Lithuania",
        "continent": "EU",
        "name_pt": "Lituânia"
    },
    {
        "name_ru": "Люксембург",
        "name_mn": "Люксембург",
        "name_fr": "Luxembourg",
        "name_sv": "Luxemburg",
        "name_sw": "Luxembourg",
        "name_es": "Luxemburgo",
        "name_ar": "لوكسمبورغ",
        "name_pl": "Luksemburg",
        "name_de": "Luxemburg",
        "ISO3": "LUX",
        "ISO": "LU",
        "name_tr": "Lüksemburg",
        "capital": "Luxembourg",
        "name_fi": "Luxemburg",
        "name_it": "Lussemburgo",
        "name_en": "Luxembourg",
        "continent": "EU",
        "name_pt": "Luxemburgo"
    },
    {
        "name_ru": "Либерия",
        "name_mn": "Либери",
        "name_fr": "Libéria",
        "name_sv": "Liberia",
        "name_sw": "Liberia",
        "name_es": "Liberia",
        "name_ar": "ليبيريا",
        "name_pl": "Liberia",
        "name_de": "Liberia",
        "ISO3": "LBR",
        "ISO": "LR",
        "name_tr": "Liberya",
        "capital": "Monrovia",
        "name_fi": "Liberia",
        "name_it": "Liberia",
        "name_en": "Liberia",
        "continent": "AF",
        "name_pt": "Libéria"
    },
    {
        "name_ru": "Лесото",
        "name_mn": "Лесото",
        "name_fr": "Lesotho",
        "name_sv": "Lesotho",
        "name_sw": "Lesoto",
        "name_es": "Lesoto",
        "name_ar": "ليسوتو",
        "name_pl": "Lesotho",
        "name_de": "Lesotho",
        "ISO3": "LSO",
        "ISO": "LS",
        "name_tr": "Lesotho",
        "capital": "Maseru",
        "name_fi": "Lesotho",
        "name_it": "Lesotho",
        "name_en": "Lesotho",
        "continent": "AF",
        "name_pt": "Lesoto"
    },
    {
        "name_ru": "Таиланд",
        "name_mn": "Тайланд",
        "name_fr": "Thaïlande",
        "name_sv": "Thailand",
        "name_sw": "Tailandi",
        "name_es": "Tailandia",
        "name_ar": "تايلاند",
        "name_pl": "Tajlandia",
        "name_de": "Thailand",
        "ISO3": "THA",
        "ISO": "TH",
        "name_tr": "Tayland",
        "capital": "Bangkok",
        "name_fi": "Thaimaa",
        "name_it": "Thailandia",
        "name_en": "Thailand",
        "continent": "AS",
        "name_pt": "Tailândia"
    },
    {
        "name_ru": "Французские Южные территории",
        "name_mn": "Францын өмнөд газар нутаг",
        "name_fr": "Terres australes françaises",
        "name_sv": "Franska sydterritorierna",
        "name_sw": "Maeneo ya Kusini ya Ufaransa",
        "name_es": "Territorios Australes Franceses",
        "name_ar": "الأقاليم الجنوبية الفرنسية",
        "name_pl": "Francuskie Terytoria Południowe i Antarktyczne",
        "name_de": "Französische Süd- und Antarktisgebiete",
        "ISO3": "ATF",
        "ISO": "TF",
        "name_tr": "Fransız Güney Toprakları",
        "capital": "Port-aux-Francais",
        "name_fi": "Ranskan eteläiset alueet",
        "name_it": "Terre australi francesi",
        "name_en": "French Southern Territories",
        "continent": "AN",
        "name_pt": "Territórios Franceses do Sul"
    },
    {
        "name_ru": "Того",
        "name_mn": "Того",
        "name_fr": "Togo",
        "name_sv": "Togo",
        "name_sw": "Togo",
        "name_es": "Togo",
        "name_ar": "توغو",
        "name_pl": "Togo",
        "name_de": "Togo",
        "ISO3": "TGO",
        "ISO": "TG",
        "name_tr": "Togo",
        "capital": "Lome",
        "name_fi": "Togo",
        "name_it": "Togo",
        "name_en": "Togo",
        "continent": "AF",
        "name_pt": "Togo"
    },
    {
        "name_ru": "Чад",
        "name_mn": "Чад",
        "name_fr": "Tchad",
        "name_sv": "Tchad",
        "name_sw": "Chad",
        "name_es": "Chad",
        "name_ar": "تشاد",
        "name_pl": "Czad",
        "name_de": "Tschad",
        "ISO3": "TCD",
        "ISO": "TD",
        "name_tr": "Çad",
        "capital": "N'Djamena",
        "name_fi": "Tšad",
        "name_it": "Ciad",
        "name_en": "Chad",
        "continent": "AF",
        "name_pt": "Chade"
    },
    {
        "name_ru": "о-ва Тёркс и Кайкос",
        "name_mn": "Турк ба Кайкосын Арлууд",
        "name_fr": "Îles Turques-et-Caïques",
        "name_sv": "Turks- och Caicosöarna",
        "name_sw": "Visiwa vya Turki na Kaiko",
        "name_es": "Islas Turcas y Caicos",
        "name_ar": "جزر توركس وكايكوس",
        "name_pl": "Turks i Caicos",
        "name_de": "Turks- und Caicosinseln",
        "ISO3": "TCA",
        "ISO": "TC",
        "name_tr": "Turks ve Caicos Adaları",
        "capital": "Cockburn Town",
        "name_fi": "Turks- ja Caicossaaret",
        "name_it": "Isole Turks e Caicos",
        "name_en": "Turks & Caicos Islands",
        "name_pt": "Ilhas Turks e Caicos",
        "continent": "NA",
        "alternates": [
            "Turks and Caicos Islands"
        ]
    },
    {
        "name_ru": "Ливия",
        "name_mn": "Ливи",
        "name_fr": "Libye",
        "name_sv": "Libyen",
        "name_sw": "Libya",
        "name_es": "Libia",
        "name_ar": "ليبيا",
        "name_pl": "Libia",
        "name_de": "Libyen",
        "ISO3": "LBY",
        "ISO": "LY",
        "name_tr": "Libya",
        "capital": "Tripoli",
        "name_fi": "Libya",
        "name_it": "Libia",
        "name_en": "Libya",
        "continent": "AF",
        "name_pt": "Líbia"
    },
    {
        "name_ru": "Ватикан",
        "name_mn": "Ватикан хот улс",
        "name_fr": "État de la Cité du Vatican",
        "name_sv": "Vatikanstaten",
        "name_sw": "Vatikani",
        "name_es": "Ciudad del Vaticano",
        "name_ar": "الفاتيكان",
        "name_pl": "Watykan",
        "name_de": "Vatikanstadt",
        "ISO3": "VAT",
        "ISO": "VA",
        "name_tr": "Vatikan",
        "capital": "Vatican City",
        "name_fi": "Vatikaani",
        "name_it": "Città del Vaticano",
        "name_en": "Vatican City",
        "name_pt": "Cidade do Vaticano",
        "continent": "EU",
        "alternates": [
            "Vatican"
        ]
    },
    {
        "name_ru": "о-в Вознесения",
        "name_mn": "Аскенсион арал",
        "name_fr": "Île de l’Ascension",
        "name_sv": "Ascension",
        "name_sw": "Kisiwa cha Ascension",
        "name_es": "Isla de la Ascensión",
        "name_ar": "جزيرة أسينشيون",
        "name_pl": "Wyspa Wniebowstąpienia",
        "name_de": "Ascension",
        "ISO": "AC",
        "name_tr": "Ascension Adası",
        "name_fi": "Ascension-saari",
        "name_it": "Isola Ascensione",
        "name_en": "Ascension Island",
        "name_pt": "Ilha de Ascensão"
    },
    {
        "name_ru": "ОАЭ",
        "name_mn": "Арабын Нэгдсэн Эмират",
        "name_fr": "Émirats arabes unis",
        "name_sv": "Förenade Arabemiraten",
        "name_sw": "Falme za Kiarabu",
        "name_es": "Emiratos Árabes Unidos",
        "name_ar": "الإمارات العربية المتحدة",
        "name_pl": "Zjednoczone Emiraty Arabskie",
        "name_de": "Vereinigte Arabische Emirate",
        "ISO3": "ARE",
        "ISO": "AE",
        "name_tr": "Birleşik Arap Emirlikleri",
        "capital": "Abu Dhabi",
        "name_fi": "Arabiemiirikunnat",
        "name_it": "Emirati Arabi Uniti",
        "name_en": "United Arab Emirates",
        "continent": "AS",
        "name_pt": "Emirados Árabes Unidos"
    },
    {
        "name_ru": "Андорра",
        "name_mn": "Андорра",
        "name_fr": "Andorre",
        "name_sv": "Andorra",
        "name_sw": "Andora",
        "name_es": "Andorra",
        "name_ar": "أندورا",
        "name_pl": "Andora",
        "name_de": "Andorra",
        "ISO3": "AND",
        "ISO": "AD",
        "name_tr": "Andorra",
        "capital": "Andorra la Vella",
        "name_fi": "Andorra",
        "name_it": "Andorra",
        "name_en": "Andorra",
        "continent": "EU",
        "name_pt": "Andorra"
    },
    {
        "name_ru": "Антигуа и Барбуда",
        "name_mn": "Антигуа ба Барбуда",
        "name_fr": "Antigua-et-Barbuda",
        "name_sv": "Antigua och Barbuda",
        "name_sw": "Antigua na Barbuda",
        "name_es": "Antigua y Barbuda",
        "name_ar": "أنتيغوا وبربودا",
        "name_pl": "Antigua i Barbuda",
        "name_de": "Antigua und Barbuda",
        "ISO3": "ATG",
        "ISO": "AG",
        "name_tr": "Antigua ve Barbuda",
        "capital": "St. John's",
        "name_fi": "Antigua ja Barbuda",
        "name_it": "Antigua e Barbuda",
        "name_en": "Antigua & Barbuda",
        "name_pt": "Antígua e Barbuda",
        "continent": "NA",
        "alternates": [
            "Antigua and Barbuda"
        ]
    },
    {
        "name_ru": "Афганистан",
        "name_mn": "Афганистан",
        "name_fr": "Afghanistan",
        "name_sv": "Afghanistan",
        "name_sw": "Afghanistan",
        "name_es": "Afganistán",
        "name_ar": "أفغانستان",
        "name_pl": "Afganistan",
        "name_de": "Afghanistan",
        "ISO3": "AFG",
        "ISO": "AF",
        "name_tr": "Afganistan",
        "capital": "Kabul",
        "name_fi": "Afganistan",
        "name_it": "Afghanistan",
        "name_en": "Afghanistan",
        "continent": "AS",
        "name_pt": "Afeganistão"
    },
    {
        "name_ru": "Ангилья",
        "name_mn": "Ангила",
        "name_fr": "Anguilla",
        "name_sv": "Anguilla",
        "name_sw": "Anguilla",
        "name_es": "Anguila",
        "name_ar": "أنغويلا",
        "name_pl": "Anguilla",
        "name_de": "Anguilla",
        "ISO3": "AIA",
        "ISO": "AI",
        "name_tr": "Anguilla",
        "capital": "The Valley",
        "name_fi": "Anguilla",
        "name_it": "Anguilla",
        "name_en": "Anguilla",
        "continent": "NA",
        "name_pt": "Anguilla"
    },
    {
        "name_ru": "Виргинские о-ва (США)",
        "name_mn": "АНУ-ын Виржиний Арлууд",
        "name_fr": "Îles Vierges des États-Unis",
        "name_sv": "Amerikanska Jungfruöarna",
        "name_sw": "Visiwa vya Virgin vya Marekani",
        "name_es": "Islas Vírgenes de EE. UU.",
        "name_ar": "جزر فيرجن التابعة للولايات المتحدة",
        "name_pl": "Wyspy Dziewicze Stanów Zjednoczonych",
        "name_de": "Amerikanische Jungferninseln",
        "ISO3": "VIR",
        "ISO": "VI",
        "name_tr": "ABD Virjin Adaları",
        "capital": "Charlotte Amalie",
        "name_fi": "Yhdysvaltain Neitsytsaaret",
        "name_it": "Isole Vergini Americane",
        "name_en": "U.S. Virgin Islands",
        "continent": "NA",
        "name_pt": "Ilhas Virgens dos EUA"
    },
    {
        "name_ru": "Исландия",
        "name_mn": "Исланд",
        "name_fr": "Islande",
        "name_sv": "Island",
        "name_sw": "Aislandi",
        "name_es": "Islandia",
        "name_ar": "أيسلندا",
        "name_pl": "Islandia",
        "name_de": "Island",
        "ISO3": "ISL",
        "ISO": "IS",
        "name_tr": "İzlanda",
        "capital": "Reykjavik",
        "name_fi": "Islanti",
        "name_it": "Islanda",
        "name_en": "Iceland",
        "continent": "EU",
        "name_pt": "Islândia"
    },
    {
        "name_ru": "Иран",
        "name_mn": "Иран",
        "name_fr": "Iran",
        "name_sv": "Iran",
        "name_sw": "Iran",
        "name_es": "Irán",
        "name_ar": "إيران",
        "name_pl": "Iran",
        "name_de": "Iran",
        "ISO3": "IRN",
        "ISO": "IR",
        "name_tr": "İran",
        "capital": "Tehran",
        "name_fi": "Iran",
        "name_it": "Iran",
        "name_en": "Iran",
        "continent": "AS",
        "name_pt": "Irã"
    },
    {
        "name_ru": "Армения",
        "name_mn": "Армени",
        "name_fr": "Arménie",
        "name_sv": "Armenien",
        "name_sw": "Armenia",
        "name_es": "Armenia",
        "name_ar": "أرمينيا",
        "name_pl": "Armenia",
        "name_de": "Armenien",
        "ISO3": "ARM",
        "ISO": "AM",
        "name_tr": "Ermenistan",
        "capital": "Yerevan",
        "name_fi": "Armenia",
        "name_it": "Armenia",
        "name_en": "Armenia",
        "continent": "AS",
        "name_pt": "Armênia"
    },
    {
        "name_ru": "Албания",
        "name_mn": "Албани",
        "name_fr": "Albanie",
        "name_sv": "Albanien",
        "name_sw": "Albania",
        "name_es": "Albania",
        "name_ar": "ألبانيا",
        "name_pl": "Albania",
        "name_de": "Albanien",
        "ISO3": "ALB",
        "ISO": "AL",
        "name_tr": "Arnavutluk",
        "capital": "Tirana",
        "name_fi": "Albania",
        "name_it": "Albania",
        "name_en": "Albania",
        "continent": "EU",
        "name_pt": "Albânia"
    },
    {
        "name_ru": "Ангола",
        "name_mn": "Ангол",
        "name_fr": "Angola",
        "name_sv": "Angola",
        "name_sw": "Angola",
        "name_es": "Angola",
        "name_ar": "أنغولا",
        "name_pl": "Angola",
        "name_de": "Angola",
        "ISO3": "AGO",
        "ISO": "AO",
        "name_tr": "Angola",
        "capital": "Luanda",
        "name_fi": "Angola",
        "name_it": "Angola",
        "name_en": "Angola",
        "continent": "AF",
        "name_pt": "Angola"
    },
    {
        "name_ru": "Аргентина",
        "name_mn": "Аргентин",
        "name_fr": "Argentine",
        "name_sv": "Argentina",
        "name_sw": "Ajentina",
        "name_es": "Argentina",
        "name_ar": "الأرجنتين",
        "name_pl": "Argentyna",
        "name_de": "Argentinien",
        "ISO3": "ARG",
        "ISO": "AR",
        "name_tr": "Arjantin",
        "capital": "Buenos Aires",
        "name_fi": "Argentiina",
        "name_it": "Argentina",
        "name_en": "Argentina",
        "continent": "SA",
        "name_pt": "Argentina"
    },
    {
        "name_ru": "Австралия",
        "name_mn": "Австрали",
        "name_fr": "Australie",
        "name_sv": "Australien",
        "name_sw": "Australia",
        "name_es": "Australia",
        "name_ar": "أستراليا",
        "name_pl": "Australia",
        "name_de": "Australien",
        "ISO3": "AUS",
        "ISO": "AU",
        "name_tr": "Avustralya",
        "capital": "Canberra",
        "name_fi": "Australia",
        "name_it": "Australia",
        "name_en": "Australia",
        "continent": "OC",
        "name_pt": "Austrália"
    },
    {
        "name_ru": "Австрия",
        "name_mn": "Австри",
        "name_fr": "Autriche",
        "name_sv": "Österrike",
        "name_sw": "Austria",
        "name_es": "Austria",
        "name_ar": "النمسا",
        "name_pl": "Austria",
        "name_de": "Österreich",
        "ISO3": "AUT",
        "ISO": "AT",
        "name_tr": "Avusturya",
        "capital": "Vienna",
        "name_fi": "Itävalta",
        "name_it": "Austria",
        "name_en": "Austria",
        "continent": "EU",
        "name_pt": "Áustria"
    },
    {
        "name_ru": "Индия",
        "name_mn": "Энэтхэг",
        "name_fr": "Inde",
        "name_sv": "Indien",
        "name_sw": "India",
        "name_es": "India",
        "name_ar": "الهند",
        "name_pl": "Indie",
        "name_de": "Indien",
        "ISO3": "IND",
        "ISO": "IN",
        "name_tr": "Hindistan",
        "capital": "New Delhi",
        "name_fi": "Intia",
        "name_it": "India",
        "name_en": "India",
        "name_pt": "Índia",
        "continent": "AS",
        "alternative_spellings": "भारत गणराज्य Hindustan"
    },
    {
        "name_ru": "Аландские о-ва",
        "name_mn": "Аландын Арлууд",
        "name_fr": "Îles Åland",
        "name_sv": "Åland",
        "name_sw": "Visiwa vya Alandi",
        "name_es": "Islas Åland",
        "name_ar": "جزر آلاند",
        "name_pl": "Wyspy Alandzkie",
        "name_de": "Ålandinseln",
        "name_pt": "Ilhas Åland",
        "ISO3": "ALA",
        "ISO": "AX",
        "name_tr": "Åland Adaları",
        "capital": "Mariehamn",
        "name_fi": "Ahvenanmaa",
        "name_it": "Isole Åland",
        "name_en": "Åland Islands",
        "alternates": [
            "Aland Islands"
        ],
        "continent": "EU",
        "alternative_spellings": "Aaland Aland"
    },
    {
        "name_ru": "Азербайджан",
        "name_mn": "Азербайжан",
        "name_fr": "Azerbaïdjan",
        "name_sv": "Azerbajdzjan",
        "name_sw": "Azerbaijan",
        "name_es": "Azerbaiyán",
        "name_ar": "أذربيجان",
        "name_pl": "Azerbejdżan",
        "name_de": "Aserbaidschan",
        "ISO3": "AZE",
        "ISO": "AZ",
        "name_tr": "Azerbaycan",
        "capital": "Baku",
        "name_fi": "Azerbaidžan",
        "name_it": "Azerbaigian",
        "name_en": "Azerbaijan",
        "continent": "AS",
        "name_pt": "Azerbaijão"
    },
    {
        "name_ru": "Ирландия",
        "name_mn": "Ирланд",
        "name_fr": "Irlande",
        "name_sv": "Irland",
        "name_sw": "Ayalandi",
        "name_es": "Irlanda",
        "name_ar": "أيرلندا",
        "name_pl": "Irlandia",
        "name_de": "Irland",
        "ISO3": "IRL",
        "ISO": "IE",
        "name_tr": "İrlanda",
        "capital": "Dublin",
        "name_fi": "Irlanti",
        "name_it": "Irlanda",
        "name_en": "Ireland",
        "name_pt": "Irlanda",
        "continent": "EU",
        "alternative_spellings": "Éire"
    },
    {
        "name_ru": "Индонезия",
        "name_mn": "Индонези",
        "name_fr": "Indonésie",
        "name_sv": "Indonesien",
        "name_sw": "Indonesia",
        "name_es": "Indonesia",
        "name_ar": "إندونيسيا",
        "name_pl": "Indonezja",
        "name_de": "Indonesien",
        "ISO3": "IDN",
        "ISO": "ID",
        "name_tr": "Endonezya",
        "capital": "Jakarta",
        "name_fi": "Indonesia",
        "name_it": "Indonesia",
        "name_en": "Indonesia",
        "continent": "AS",
        "name_pt": "Indonésia"
    },
    {
        "name_ru": "Иордания",
        "name_mn": "Йордан",
        "name_fr": "Jordanie",
        "name_sv": "Jordanien",
        "name_sw": "Jordan",
        "name_es": "Jordania",
        "name_ar": "الأردن",
        "name_pl": "Jordania",
        "name_de": "Jordanien",
        "ISO3": "JOR",
        "ISO": "JO",
        "name_tr": "Ürdün",
        "capital": "Amman",
        "name_fi": "Jordania",
        "name_it": "Giordania",
        "name_en": "Jordan",
        "continent": "AS",
        "name_pt": "Jordânia"
    },
    {
        "name_ru": "Соломоновы Острова",
        "name_mn": "Соломоны Арлууд",
        "name_fr": "Îles Salomon",
        "name_sv": "Salomonöarna",
        "name_sw": "Visiwa vya Solomon",
        "name_es": "Islas Salomón",
        "name_ar": "جزر سليمان",
        "name_pl": "Wyspy Salomona",
        "name_de": "Salomonen",
        "ISO3": "SLB",
        "ISO": "SB",
        "name_tr": "Solomon Adaları",
        "capital": "Honiara",
        "name_fi": "Salomonsaaret",
        "name_it": "Isole Salomone",
        "name_en": "Solomon Islands",
        "continent": "OC",
        "name_pt": "Ilhas Salomão"
    },
    {
        "name_ru": "Украина",
        "name_mn": "Украин",
        "name_fr": "Ukraine",
        "name_sv": "Ukraina",
        "name_sw": "Ukraine",
        "name_es": "Ucrania",
        "name_ar": "أوكرانيا",
        "name_pl": "Ukraina",
        "name_de": "Ukraine",
        "ISO3": "UKR",
        "ISO": "UA",
        "name_tr": "Ukrayna",
        "capital": "Kiev",
        "name_fi": "Ukraina",
        "name_it": "Ucraina",
        "name_en": "Ukraine",
        "continent": "EU",
        "name_pt": "Ucrânia"
    },
    {
        "name_ru": "Катар",
        "name_mn": "Катар",
        "name_fr": "Qatar",
        "name_sv": "Qatar",
        "name_sw": "Qatar",
        "name_es": "Catar",
        "name_ar": "قطر",
        "name_pl": "Katar",
        "name_de": "Katar",
        "ISO3": "QAT",
        "ISO": "QA",
        "name_tr": "Katar",
        "capital": "Doha",
        "name_fi": "Qatar",
        "name_it": "Qatar",
        "name_en": "Qatar",
        "continent": "AS",
        "name_pt": "Catar"
    },
    {
        "name_ru": "Дания",
        "name_mn": "Дани",
        "name_fr": "Danemark",
        "name_sv": "Danmark",
        "name_sw": "Denmark",
        "name_es": "Dinamarca",
        "name_ar": "الدانمرك",
        "name_pl": "Dania",
        "name_de": "Dänemark",
        "ISO3": "DNK",
        "ISO": "DK",
        "name_tr": "Danimarka",
        "capital": "Copenhagen",
        "name_fi": "Tanska",
        "name_it": "Danimarca",
        "name_en": "Denmark",
        "continent": "EU",
        "name_pt": "Dinamarca"
    },
    {
        "name_ru": "Мозамбик",
        "name_mn": "Мозамбик",
        "name_fr": "Mozambique",
        "name_sv": "Moçambique",
        "name_sw": "Msumbiji",
        "name_es": "Mozambique",
        "name_ar": "موزمبيق",
        "name_pl": "Mozambik",
        "name_de": "Mosambik",
        "ISO3": "MOZ",
        "ISO": "MZ",
        "name_tr": "Mozambik",
        "capital": "Maputo",
        "name_fi": "Mosambik",
        "name_it": "Mozambico",
        "name_en": "Mozambique",
        "continent": "AF",
        "name_pt": "Moçambique"
    },
    {
        "name_ru": "Внешняя Океания",
        "name_mn": "Номхон далайг тойрсон улс орнууд",
        "name_fr": "régions éloignées de l’Océanie",
        "name_sv": "yttre öar i Oceanien",
        "name_sw": "Oceania ya Nje",
        "name_es": "Territorios alejados de Oceanía",
        "name_ar": "أوقيانوسيا النائية",
        "name_pl": "Oceania inne",
        "name_de": "Äußeres Ozeanien",
        "ISO": "QO",
        "name_tr": "Uzak Okyanusya",
        "name_fi": "ulkomeri",
        "name_it": "Oceania lontana",
        "name_en": "Outlying Oceania",
        "name_pt": "Oceania Remota"
    }
]
